,information,name,tourism,phone,website,Latitude,Longitude,Kategorie,Beschreiung
2,,Flora,hotel,,,47.0500868,8.3077493,Beherbergung,"
Lorem ipsum dolor sit amet, consetetur sadipscing elitr, sed diam nonumy eirmod tempor invidunt
ut labore et dolore magna aliquyam erat, sed diam voluptua."
41,,Reusswehr,viewpoint,,,47.0516580,8.3027337,Aktivität,"
Lorem ipsum dolor sit amet, consetetur sadipscing elitr, sed diam nonumy eirmod tempor invidunt
ut labore et dolore magna aliquyam erat, sed diam voluptua."
53,,Felmis,hotel,+41 41 349 1919,http://www.felmis.ch/,47.0212876,8.3256501,Beherbergung,"
Lorem ipsum dolor sit amet, consetetur sadipscing elitr, sed diam nonumy eirmod tempor invidunt
ut labore et dolore magna aliquyam erat, sed diam voluptua."
54,,Eintracht,hotel,,,47.1123956,8.3876738,Beherbergung,"
Lorem ipsum dolor sit amet, consetetur sadipscing elitr, sed diam nonumy eirmod tempor invidunt
ut labore et dolore magna aliquyam erat, sed diam voluptua."
55,,Die Perle,hotel,+41 (0)41 450 12 17,https://www.dieperle.ch/,47.1120925,8.3647160,Beherbergung,"
Lorem ipsum dolor sit amet, consetetur sadipscing elitr, sed diam nonumy eirmod tempor invidunt
ut labore et dolore magna aliquyam erat, sed diam voluptua."
72,,Känzeli,viewpoint,,,47.0457421,8.4555922,Aktivität,"
Lorem ipsum dolor sit amet, consetetur sadipscing elitr, sed diam nonumy eirmod tempor invidunt
ut labore et dolore magna aliquyam erat, sed diam voluptua."
73,,Hotel Garni an der Reuss,hotel,+41 41 455 31 31,https://www.hotelanderreuss.ch,47.1240845,8.3967012,Beherbergung,"
Lorem ipsum dolor sit amet, consetetur sadipscing elitr, sed diam nonumy eirmod tempor invidunt
ut labore et dolore magna aliquyam erat, sed diam voluptua."
74,,Baumhaus,attraction,,https://www.baumhaustraum.ch/,47.1524556,8.2056008,Aktivität,"
Lorem ipsum dolor sit amet, consetetur sadipscing elitr, sed diam nonumy eirmod tempor invidunt
ut labore et dolore magna aliquyam erat, sed diam voluptua."
82,,Gasthaus zum Ochsen,hotel,+41 41 980 63 10,https://www.ochsen-grosswangen.ch/,47.1347846,8.0477613,Beherbergung,"
Lorem ipsum dolor sit amet, consetetur sadipscing elitr, sed diam nonumy eirmod tempor invidunt
ut labore et dolore magna aliquyam erat, sed diam voluptua."
87,,Kreuz,hotel,+41 41 448 12 25,,47.1224529,8.3545555,Beherbergung,"
Lorem ipsum dolor sit amet, consetetur sadipscing elitr, sed diam nonumy eirmod tempor invidunt
ut labore et dolore magna aliquyam erat, sed diam voluptua."
91,,Löwen,hotel,+41 41 440 10 58,,47.0804459,8.3378667,Beherbergung,"
Lorem ipsum dolor sit amet, consetetur sadipscing elitr, sed diam nonumy eirmod tempor invidunt
ut labore et dolore magna aliquyam erat, sed diam voluptua."
95,,Schlossmuseum Beromünster,museum,,,47.2071693,8.1904541,Aktivität,"
Lorem ipsum dolor sit amet, consetetur sadipscing elitr, sed diam nonumy eirmod tempor invidunt
ut labore et dolore magna aliquyam erat, sed diam voluptua."
101,,Mordshagel,picnic_site,,,47.2035061,7.9736912,Aktivität,"
Lorem ipsum dolor sit amet, consetetur sadipscing elitr, sed diam nonumy eirmod tempor invidunt
ut labore et dolore magna aliquyam erat, sed diam voluptua."
109,,Museggmauer,attraction,,,47.0546864,8.3056105,Aktivität,"
Lorem ipsum dolor sit amet, consetetur sadipscing elitr, sed diam nonumy eirmod tempor invidunt
ut labore et dolore magna aliquyam erat, sed diam voluptua."
111,,Kurhaus Seeblick,hotel,+41 41 392 0202,https://www.kurhaus-seeblick.ch/,47.0299234,8.4194690,Beherbergung,"
Lorem ipsum dolor sit amet, consetetur sadipscing elitr, sed diam nonumy eirmod tempor invidunt
ut labore et dolore magna aliquyam erat, sed diam voluptua."
114,,Holiday Inn Express : Luzern - Neuenkirch,hotel,+41-41-2882828,http://www.hiexpress.com,47.1137175,8.2335435,Beherbergung,"
Lorem ipsum dolor sit amet, consetetur sadipscing elitr, sed diam nonumy eirmod tempor invidunt
ut labore et dolore magna aliquyam erat, sed diam voluptua."
130,,Mittler Schwerzi,viewpoint,,,47.0913287,8.1254488,Aktivität,"
Lorem ipsum dolor sit amet, consetetur sadipscing elitr, sed diam nonumy eirmod tempor invidunt
ut labore et dolore magna aliquyam erat, sed diam voluptua."
133,,Hotel Sternen;Sternen,hotel,+41419171224,http://www.sternenhotel.ch/,47.2137630,8.2653860,Beherbergung,"
Lorem ipsum dolor sit amet, consetetur sadipscing elitr, sed diam nonumy eirmod tempor invidunt
ut labore et dolore magna aliquyam erat, sed diam voluptua."
134,,Ehemaliges Kloster St.Urban,attraction,,,47.2323260,7.8397734,Aktivität,"
Lorem ipsum dolor sit amet, consetetur sadipscing elitr, sed diam nonumy eirmod tempor invidunt
ut labore et dolore magna aliquyam erat, sed diam voluptua."
135,,Radisson Blu Hotel,hotel,+41 41 369 9000,https://www.radissonhotels.com/de-de/hotels/radisson-blu-lucerne,47.0480616,8.3138770,Beherbergung,"
Lorem ipsum dolor sit amet, consetetur sadipscing elitr, sed diam nonumy eirmod tempor invidunt
ut labore et dolore magna aliquyam erat, sed diam voluptua."
136,,Backpackers,hostel,,,47.0441013,8.3210943,Beherbergung,"
Lorem ipsum dolor sit amet, consetetur sadipscing elitr, sed diam nonumy eirmod tempor invidunt
ut labore et dolore magna aliquyam erat, sed diam voluptua."
137,,Cascada,hotel,,https://www.cascada.ch/,47.0461846,8.3093227,Beherbergung,"
Lorem ipsum dolor sit amet, consetetur sadipscing elitr, sed diam nonumy eirmod tempor invidunt
ut labore et dolore magna aliquyam erat, sed diam voluptua."
138,,Kunstmuseum Luzern,museum,,https://www.kunstmuseumluzern.ch/,47.0504373,8.3116665,Aktivität,"
Lorem ipsum dolor sit amet, consetetur sadipscing elitr, sed diam nonumy eirmod tempor invidunt
ut labore et dolore magna aliquyam erat, sed diam voluptua."
140,,Seehotel Kastanienbaum,hotel,+41 41 340 03 40,,47.0078197,8.3403494,Beherbergung,"
Lorem ipsum dolor sit amet, consetetur sadipscing elitr, sed diam nonumy eirmod tempor invidunt
ut labore et dolore magna aliquyam erat, sed diam voluptua."
141,,Hotel Restaurant Hammer,hotel,+41 41 497 52 05,,47.0082263,8.2179024,Beherbergung,"
Lorem ipsum dolor sit amet, consetetur sadipscing elitr, sed diam nonumy eirmod tempor invidunt
ut labore et dolore magna aliquyam erat, sed diam voluptua."
144,,Seeblick,viewpoint,,,47.0279677,8.3272564,Aktivität,"
Lorem ipsum dolor sit amet, consetetur sadipscing elitr, sed diam nonumy eirmod tempor invidunt
ut labore et dolore magna aliquyam erat, sed diam voluptua."
145,,Hotel Port,hotel,,,46.9911869,8.0636915,Beherbergung,"
Lorem ipsum dolor sit amet, consetetur sadipscing elitr, sed diam nonumy eirmod tempor invidunt
ut labore et dolore magna aliquyam erat, sed diam voluptua."
147,,Drei Könige,hotel,+41 41 480 12 27,,46.9935759,8.0653892,Beherbergung,"
Lorem ipsum dolor sit amet, consetetur sadipscing elitr, sed diam nonumy eirmod tempor invidunt
ut labore et dolore magna aliquyam erat, sed diam voluptua."
148,office,Bäckerei Renggli/ Tourismus Biosphäre Entlebuch,information,,,46.9938313,8.0653387,Information,"
Lorem ipsum dolor sit amet, consetetur sadipscing elitr, sed diam nonumy eirmod tempor invidunt
ut labore et dolore magna aliquyam erat, sed diam voluptua."
150,,Ibis,hotel,,,47.0236726,8.2992435,Beherbergung,"
Lorem ipsum dolor sit amet, consetetur sadipscing elitr, sed diam nonumy eirmod tempor invidunt
ut labore et dolore magna aliquyam erat, sed diam voluptua."
158,,Stockacher,picnic_site,,,47.1885735,8.0660337,Aktivität,"
Lorem ipsum dolor sit amet, consetetur sadipscing elitr, sed diam nonumy eirmod tempor invidunt
ut labore et dolore magna aliquyam erat, sed diam voluptua."
172,,Bellevue,hotel,+41 41 371 27 27,https://bellevue-luzern.ch/,47.0435539,8.3499717,Beherbergung,"
Lorem ipsum dolor sit amet, consetetur sadipscing elitr, sed diam nonumy eirmod tempor invidunt
ut labore et dolore magna aliquyam erat, sed diam voluptua."
173,,Hotel Seeburg,hotel,+41 41 375 5555,https://hotelseeburg.ch/,47.0470557,8.3440603,Beherbergung,"
Lorem ipsum dolor sit amet, consetetur sadipscing elitr, sed diam nonumy eirmod tempor invidunt
ut labore et dolore magna aliquyam erat, sed diam voluptua."
174,,Richemont Gastronomie & Hotel,hotel,+41 41 375 85 80,https://richemont-gastro.ch/,47.0478181,8.3434633,Beherbergung,"
Lorem ipsum dolor sit amet, consetetur sadipscing elitr, sed diam nonumy eirmod tempor invidunt
ut labore et dolore magna aliquyam erat, sed diam voluptua."
180,,Konservatorium,viewpoint,,,47.0603841,8.3219154,Aktivität,"
Lorem ipsum dolor sit amet, consetetur sadipscing elitr, sed diam nonumy eirmod tempor invidunt
ut labore et dolore magna aliquyam erat, sed diam voluptua."
186,,Seehotel Sternen,hotel,+41 41 348 24 82,,47.0118736,8.3164372,Beherbergung,"
Lorem ipsum dolor sit amet, consetetur sadipscing elitr, sed diam nonumy eirmod tempor invidunt
ut labore et dolore magna aliquyam erat, sed diam voluptua."
204,board,Schiessplatz Glaubenberg,information,,,46.8736780,8.0607085,Information,"
Lorem ipsum dolor sit amet, consetetur sadipscing elitr, sed diam nonumy eirmod tempor invidunt
ut labore et dolore magna aliquyam erat, sed diam voluptua."
208,,Schweizerisches Agrarmuseum Burgrain,museum,,https://www.museumburgrain.ch,47.1433430,7.9964588,Aktivität,"
Lorem ipsum dolor sit amet, consetetur sadipscing elitr, sed diam nonumy eirmod tempor invidunt
ut labore et dolore magna aliquyam erat, sed diam voluptua."
209,,Agrovision Burgrain: Viehstall Besuchergalerie,attraction,,https://www.burgrain.ch/,47.1437919,7.9988354,Aktivität,"
Lorem ipsum dolor sit amet, consetetur sadipscing elitr, sed diam nonumy eirmod tempor invidunt
ut labore et dolore magna aliquyam erat, sed diam voluptua."
215,,Museum Ronmühle,museum,,,47.1778431,7.9943185,Aktivität,"
Lorem ipsum dolor sit amet, consetetur sadipscing elitr, sed diam nonumy eirmod tempor invidunt
ut labore et dolore magna aliquyam erat, sed diam voluptua."
216,,Goldwasch-Tour&Shop inkl. Museum,museum,,,47.1220926,8.0009972,Aktivität,"
Lorem ipsum dolor sit amet, consetetur sadipscing elitr, sed diam nonumy eirmod tempor invidunt
ut labore et dolore magna aliquyam erat, sed diam voluptua."
217,,Flaschenmuseum Willisau,museum,,,47.1167546,7.9745427,Aktivität,"
Lorem ipsum dolor sit amet, consetetur sadipscing elitr, sed diam nonumy eirmod tempor invidunt
ut labore et dolore magna aliquyam erat, sed diam voluptua."
218,,Musikinstrumenten-Sammlung Willisau,museum,,,47.1207200,7.9871597,Aktivität,"
Lorem ipsum dolor sit amet, consetetur sadipscing elitr, sed diam nonumy eirmod tempor invidunt
ut labore et dolore magna aliquyam erat, sed diam voluptua."
219,,Stadtmühle Willisau,museum,,,47.1198038,7.9893269,Aktivität,"
Lorem ipsum dolor sit amet, consetetur sadipscing elitr, sed diam nonumy eirmod tempor invidunt
ut labore et dolore magna aliquyam erat, sed diam voluptua."
220,,Wiggertaler Museum,museum,,,47.1696802,7.9883104,Aktivität,"
Lorem ipsum dolor sit amet, consetetur sadipscing elitr, sed diam nonumy eirmod tempor invidunt
ut labore et dolore magna aliquyam erat, sed diam voluptua."
222,,Löwen,hotel,,,47.2134299,7.9888364,Beherbergung,"
Lorem ipsum dolor sit amet, consetetur sadipscing elitr, sed diam nonumy eirmod tempor invidunt
ut labore et dolore magna aliquyam erat, sed diam voluptua."
223,,Rössli,hotel,,,47.2126196,7.9894987,Beherbergung,"
Lorem ipsum dolor sit amet, consetetur sadipscing elitr, sed diam nonumy eirmod tempor invidunt
ut labore et dolore magna aliquyam erat, sed diam voluptua."
224,,Öko-Hotel Gruebisbalm,hotel,,,47.0263008,8.4814487,Beherbergung,"
Lorem ipsum dolor sit amet, consetetur sadipscing elitr, sed diam nonumy eirmod tempor invidunt
ut labore et dolore magna aliquyam erat, sed diam voluptua."
232,,Festung Vitznau,hostel,,http://www.festung-vitznau.ch,47.0098792,8.4897716,Beherbergung,"
Lorem ipsum dolor sit amet, consetetur sadipscing elitr, sed diam nonumy eirmod tempor invidunt
ut labore et dolore magna aliquyam erat, sed diam voluptua."
236,,Chänzeli,viewpoint,,,46.9998001,8.4078475,Aktivität,"
Lorem ipsum dolor sit amet, consetetur sadipscing elitr, sed diam nonumy eirmod tempor invidunt
ut labore et dolore magna aliquyam erat, sed diam voluptua."
289,board,Archäologischer Lernpfad Wauwilermoos Station 5,information,,,47.1672878,8.0137324,Information,"
Lorem ipsum dolor sit amet, consetetur sadipscing elitr, sed diam nonumy eirmod tempor invidunt
ut labore et dolore magna aliquyam erat, sed diam voluptua."
290,board,Archäologischer Lernpfad Wauwilermoos Station 1,information,,,47.1835585,8.0181419,Information,"
Lorem ipsum dolor sit amet, consetetur sadipscing elitr, sed diam nonumy eirmod tempor invidunt
ut labore et dolore magna aliquyam erat, sed diam voluptua."
291,board,Archäologischer Lernpfad Wauwilermoos Station 2,information,,,47.1810756,8.0119299,Information,"
Lorem ipsum dolor sit amet, consetetur sadipscing elitr, sed diam nonumy eirmod tempor invidunt
ut labore et dolore magna aliquyam erat, sed diam voluptua."
292,board,Archäologischer Lernpfad Wauwilermoos Station 4,information,,,47.1729951,8.0056509,Information,"
Lorem ipsum dolor sit amet, consetetur sadipscing elitr, sed diam nonumy eirmod tempor invidunt
ut labore et dolore magna aliquyam erat, sed diam voluptua."
329,,Anker,hotel,,,47.0480566,8.3040602,Beherbergung,"
Lorem ipsum dolor sit amet, consetetur sadipscing elitr, sed diam nonumy eirmod tempor invidunt
ut labore et dolore magna aliquyam erat, sed diam voluptua."
332,,Jugendherberge Luzern,hostel,+41 41 420 88 00,https://www.youthhostel.ch/luzern,47.0617436,8.3015380,Beherbergung,"
Lorem ipsum dolor sit amet, consetetur sadipscing elitr, sed diam nonumy eirmod tempor invidunt
ut labore et dolore magna aliquyam erat, sed diam voluptua."
335,board,Infotafel: Das Luzerner Seetal,information,,,47.1779914,8.2776291,Information,"
Lorem ipsum dolor sit amet, consetetur sadipscing elitr, sed diam nonumy eirmod tempor invidunt
ut labore et dolore magna aliquyam erat, sed diam voluptua."
336,,Seminarhotel Sempachersee,hotel,,https://www.dasseminarhotel.ch/,47.1401011,8.1287302,Beherbergung,"
Lorem ipsum dolor sit amet, consetetur sadipscing elitr, sed diam nonumy eirmod tempor invidunt
ut labore et dolore magna aliquyam erat, sed diam voluptua."
337,board,Info: Wassergräben,information,,,47.1792814,8.2768368,Information,"
Lorem ipsum dolor sit amet, consetetur sadipscing elitr, sed diam nonumy eirmod tempor invidunt
ut labore et dolore magna aliquyam erat, sed diam voluptua."
338,board,Info: Riedbewohner - mit wenig zufrieden,information,,,47.1787400,8.2769079,Information,"
Lorem ipsum dolor sit amet, consetetur sadipscing elitr, sed diam nonumy eirmod tempor invidunt
ut labore et dolore magna aliquyam erat, sed diam voluptua."
339,board,Info: Riedbewohner - oft Spezialisten,information,,,47.1787201,8.2769280,Information,"
Lorem ipsum dolor sit amet, consetetur sadipscing elitr, sed diam nonumy eirmod tempor invidunt
ut labore et dolore magna aliquyam erat, sed diam voluptua."
340,board,Info: Kinder der Eiszeit,information,,,47.1803701,8.2760870,Information,"
Lorem ipsum dolor sit amet, consetetur sadipscing elitr, sed diam nonumy eirmod tempor invidunt
ut labore et dolore magna aliquyam erat, sed diam voluptua."
341,board,Info: Das Leben im Weiher,information,,,47.1805803,8.2761394,Information,"
Lorem ipsum dolor sit amet, consetetur sadipscing elitr, sed diam nonumy eirmod tempor invidunt
ut labore et dolore magna aliquyam erat, sed diam voluptua."
342,board,Info: Naturschutz seit 1909,information,,,47.1805630,8.2761367,Information,"
Lorem ipsum dolor sit amet, consetetur sadipscing elitr, sed diam nonumy eirmod tempor invidunt
ut labore et dolore magna aliquyam erat, sed diam voluptua."
343,board,Info: Siedlungsstelle Hochdorf - Baldegg,information,,,47.1805402,8.2761247,Information,"
Lorem ipsum dolor sit amet, consetetur sadipscing elitr, sed diam nonumy eirmod tempor invidunt
ut labore et dolore magna aliquyam erat, sed diam voluptua."
344,board,Info: Extensive Wiese,information,,,47.1814779,8.2763300,Information,"
Lorem ipsum dolor sit amet, consetetur sadipscing elitr, sed diam nonumy eirmod tempor invidunt
ut labore et dolore magna aliquyam erat, sed diam voluptua."
345,board,Info: Landwirtschaft im Wandel,information,,,47.1814997,8.2763300,Information,"
Lorem ipsum dolor sit amet, consetetur sadipscing elitr, sed diam nonumy eirmod tempor invidunt
ut labore et dolore magna aliquyam erat, sed diam voluptua."
346,board,Info: Schilfröhricht,information,,,47.1819792,8.2763703,Information,"
Lorem ipsum dolor sit amet, consetetur sadipscing elitr, sed diam nonumy eirmod tempor invidunt
ut labore et dolore magna aliquyam erat, sed diam voluptua."
347,board,Info: Kopfweiden,information,,,47.1820266,8.2763595,Information,"
Lorem ipsum dolor sit amet, consetetur sadipscing elitr, sed diam nonumy eirmod tempor invidunt
ut labore et dolore magna aliquyam erat, sed diam voluptua."
348,board,Info: Brutvögel am Wasser,information,,,47.1827607,8.2758256,Information,"
Lorem ipsum dolor sit amet, consetetur sadipscing elitr, sed diam nonumy eirmod tempor invidunt
ut labore et dolore magna aliquyam erat, sed diam voluptua."
349,board,Info: Fliegende Wintergäste,information,,,47.1826989,8.2758710,Information,"
Lorem ipsum dolor sit amet, consetetur sadipscing elitr, sed diam nonumy eirmod tempor invidunt
ut labore et dolore magna aliquyam erat, sed diam voluptua."
350,board,Info: Erholung in Naturschutz Gebieten,information,,,47.1848230,8.2773412,Information,"
Lorem ipsum dolor sit amet, consetetur sadipscing elitr, sed diam nonumy eirmod tempor invidunt
ut labore et dolore magna aliquyam erat, sed diam voluptua."
351,board,Info: Die Silberweide,information,,,47.1847902,8.2772071,Information,"
Lorem ipsum dolor sit amet, consetetur sadipscing elitr, sed diam nonumy eirmod tempor invidunt
ut labore et dolore magna aliquyam erat, sed diam voluptua."
370,,Hotel Central,hotel,,,47.0492502,8.3077724,Beherbergung,"
Lorem ipsum dolor sit amet, consetetur sadipscing elitr, sed diam nonumy eirmod tempor invidunt
ut labore et dolore magna aliquyam erat, sed diam voluptua."
371,,Hofgarten,hotel,T +41 41 410 88 88,,47.0558240,8.3125043,Beherbergung,"
Lorem ipsum dolor sit amet, consetetur sadipscing elitr, sed diam nonumy eirmod tempor invidunt
ut labore et dolore magna aliquyam erat, sed diam voluptua."
372,,Rebstock,hotel,,,47.0551687,8.3126346,Beherbergung,"
Lorem ipsum dolor sit amet, consetetur sadipscing elitr, sed diam nonumy eirmod tempor invidunt
ut labore et dolore magna aliquyam erat, sed diam voluptua."
376,,Tension-Energy,artwork,,https://www.d4business-village.ch/de/architektur/kreisel_k17,47.1034002,8.3763208,Aktivität,"
Lorem ipsum dolor sit amet, consetetur sadipscing elitr, sed diam nonumy eirmod tempor invidunt
ut labore et dolore magna aliquyam erat, sed diam voluptua."
402,,Hotel Drei Könige,hotel,,,47.0496040,8.3006894,Beherbergung,"
Lorem ipsum dolor sit amet, consetetur sadipscing elitr, sed diam nonumy eirmod tempor invidunt
ut labore et dolore magna aliquyam erat, sed diam voluptua."
404,,The Hotel,hotel,,,47.0479754,8.3078026,Beherbergung,"
Lorem ipsum dolor sit amet, consetetur sadipscing elitr, sed diam nonumy eirmod tempor invidunt
ut labore et dolore magna aliquyam erat, sed diam voluptua."
413,,Strick,viewpoint,,,46.8545210,7.9856113,Aktivität,"
Lorem ipsum dolor sit amet, consetetur sadipscing elitr, sed diam nonumy eirmod tempor invidunt
ut labore et dolore magna aliquyam erat, sed diam voluptua."
415,,Skihütte Schwand,hotel,,https://www.schwand.ch/,46.8110074,8.0386961,Beherbergung,"
Lorem ipsum dolor sit amet, consetetur sadipscing elitr, sed diam nonumy eirmod tempor invidunt
ut labore et dolore magna aliquyam erat, sed diam voluptua."
422,,700 Jahre Rickenbacher,viewpoint,,,47.2350978,8.1557666,Aktivität,"
Lorem ipsum dolor sit amet, consetetur sadipscing elitr, sed diam nonumy eirmod tempor invidunt
ut labore et dolore magna aliquyam erat, sed diam voluptua."
425,,Sonne,hotel,,http://www.sonne-reiden.ch/,47.2473047,7.9710589,Beherbergung,"
Lorem ipsum dolor sit amet, consetetur sadipscing elitr, sed diam nonumy eirmod tempor invidunt
ut labore et dolore magna aliquyam erat, sed diam voluptua."
434,,Hotel Astoria,hotel,,,47.0480783,8.3056813,Beherbergung,"
Lorem ipsum dolor sit amet, consetetur sadipscing elitr, sed diam nonumy eirmod tempor invidunt
ut labore et dolore magna aliquyam erat, sed diam voluptua."
438,,Barbecue,picnic_site,,,46.8251334,7.9395656,Aktivität,"
Lorem ipsum dolor sit amet, consetetur sadipscing elitr, sed diam nonumy eirmod tempor invidunt
ut labore et dolore magna aliquyam erat, sed diam voluptua."
444,,Hotel Alpha,hotel,+41 41 310 79 33,https://hotelalpha.ch,47.0469800,8.3013983,Beherbergung,"
Lorem ipsum dolor sit amet, consetetur sadipscing elitr, sed diam nonumy eirmod tempor invidunt
ut labore et dolore magna aliquyam erat, sed diam voluptua."
445,office,Stadtverwaltung,information,,https://www.sempachersee-tourismus.ch/,47.1715802,8.1067343,Information,"
Lorem ipsum dolor sit amet, consetetur sadipscing elitr, sed diam nonumy eirmod tempor invidunt
ut labore et dolore magna aliquyam erat, sed diam voluptua."
446,,Löwen,hotel,+41 41 486 12 06,http://www.loewen-escholzmatt.ch/,46.9137017,7.9336668,Beherbergung,"
Lorem ipsum dolor sit amet, consetetur sadipscing elitr, sed diam nonumy eirmod tempor invidunt
ut labore et dolore magna aliquyam erat, sed diam voluptua."
449,,Sammlung Rosengart,museum,,https://www.rosengart.ch,47.0496846,8.3073171,Aktivität,"
Lorem ipsum dolor sit amet, consetetur sadipscing elitr, sed diam nonumy eirmod tempor invidunt
ut labore et dolore magna aliquyam erat, sed diam voluptua."
454,,Bloodhound 64,attraction,,,47.0882846,8.2881271,Aktivität,"
Lorem ipsum dolor sit amet, consetetur sadipscing elitr, sed diam nonumy eirmod tempor invidunt
ut labore et dolore magna aliquyam erat, sed diam voluptua."
458,,Hawker Hunter,attraction,,,47.0920960,8.2994967,Aktivität,"
Lorem ipsum dolor sit amet, consetetur sadipscing elitr, sed diam nonumy eirmod tempor invidunt
ut labore et dolore magna aliquyam erat, sed diam voluptua."
461,,Monopol,hotel,,,47.0497909,8.3089896,Beherbergung,"
Lorem ipsum dolor sit amet, consetetur sadipscing elitr, sed diam nonumy eirmod tempor invidunt
ut labore et dolore magna aliquyam erat, sed diam voluptua."
465,,Bourbaki Panorama,museum,,https://www.bourbakipanorama.ch/,47.0569576,8.3112262,Aktivität,"
Lorem ipsum dolor sit amet, consetetur sadipscing elitr, sed diam nonumy eirmod tempor invidunt
ut labore et dolore magna aliquyam erat, sed diam voluptua."
466,,Löwendenkmal,artwork,,,47.0584443,8.3108680,Aktivität,"
Lorem ipsum dolor sit amet, consetetur sadipscing elitr, sed diam nonumy eirmod tempor invidunt
ut labore et dolore magna aliquyam erat, sed diam voluptua."
475,,Lion Lodge Luzern,hostel,,,47.0591140,8.3092644,Beherbergung,"
Lorem ipsum dolor sit amet, consetetur sadipscing elitr, sed diam nonumy eirmod tempor invidunt
ut labore et dolore magna aliquyam erat, sed diam voluptua."
481,,Bellevue am See,hotel,,http://www.bellevue-sursee.ch,47.1695928,8.1196123,Beherbergung,"
Lorem ipsum dolor sit amet, consetetur sadipscing elitr, sed diam nonumy eirmod tempor invidunt
ut labore et dolore magna aliquyam erat, sed diam voluptua."
482,,St. Urbanhof,museum,,http://www.sankturbanhof.ch,47.1736500,8.1094045,Aktivität,"
Lorem ipsum dolor sit amet, consetetur sadipscing elitr, sed diam nonumy eirmod tempor invidunt
ut labore et dolore magna aliquyam erat, sed diam voluptua."
483,,Brauerei,hotel,,,47.1695272,8.1135314,Beherbergung,"
Lorem ipsum dolor sit amet, consetetur sadipscing elitr, sed diam nonumy eirmod tempor invidunt
ut labore et dolore magna aliquyam erat, sed diam voluptua."
484,,Hotel Sursee,hotel,,http://www.hotel-sursee.ch,47.1722859,8.1052498,Beherbergung,"
Lorem ipsum dolor sit amet, consetetur sadipscing elitr, sed diam nonumy eirmod tempor invidunt
ut labore et dolore magna aliquyam erat, sed diam voluptua."
485,,Hirschen,hotel,,http://www.hirschen-sursee.ch,47.1721105,8.1102893,Beherbergung,"
Lorem ipsum dolor sit amet, consetetur sadipscing elitr, sed diam nonumy eirmod tempor invidunt
ut labore et dolore magna aliquyam erat, sed diam voluptua."
486,,Schweizerhof,hotel,,,47.0543195,8.3102224,Beherbergung,"
Lorem ipsum dolor sit amet, consetetur sadipscing elitr, sed diam nonumy eirmod tempor invidunt
ut labore et dolore magna aliquyam erat, sed diam voluptua."
491,,Ambassador,hotel,,,47.0561008,8.3103043,Beherbergung,"
Lorem ipsum dolor sit amet, consetetur sadipscing elitr, sed diam nonumy eirmod tempor invidunt
ut labore et dolore magna aliquyam erat, sed diam voluptua."
492,,Hotel de la Paix,hotel,,,47.0558753,8.3102950,Beherbergung,"
Lorem ipsum dolor sit amet, consetetur sadipscing elitr, sed diam nonumy eirmod tempor invidunt
ut labore et dolore magna aliquyam erat, sed diam voluptua."
493,,Luzernerhof,hotel,,http://www.luzernerhof.ch/,47.0550810,8.3110279,Beherbergung,"
Lorem ipsum dolor sit amet, consetetur sadipscing elitr, sed diam nonumy eirmod tempor invidunt
ut labore et dolore magna aliquyam erat, sed diam voluptua."
498,,Alpineum museum,attraction,,http://www.alpineum.ch/,47.0579175,8.3104191,Aktivität,"
Lorem ipsum dolor sit amet, consetetur sadipscing elitr, sed diam nonumy eirmod tempor invidunt
ut labore et dolore magna aliquyam erat, sed diam voluptua."
499,,Aussichtsplatform,viewpoint,,,47.0539311,8.3273087,Aktivität,"
Lorem ipsum dolor sit amet, consetetur sadipscing elitr, sed diam nonumy eirmod tempor invidunt
ut labore et dolore magna aliquyam erat, sed diam voluptua."
500,,Aussichtsplattform Luzerner Seebecken,attraction,,,47.0539278,8.3272780,Aktivität,"
Lorem ipsum dolor sit amet, consetetur sadipscing elitr, sed diam nonumy eirmod tempor invidunt
ut labore et dolore magna aliquyam erat, sed diam voluptua."
501,,Inseli,viewpoint,,,47.0502468,8.3140734,Aktivität,"
Lorem ipsum dolor sit amet, consetetur sadipscing elitr, sed diam nonumy eirmod tempor invidunt
ut labore et dolore magna aliquyam erat, sed diam voluptua."
502,,Hotel zum Weisses Kreuz,hotel,+41 41 418 82 20,http://www.altstadthotelluzern.ch/,47.0521207,8.3065751,Beherbergung,"
Lorem ipsum dolor sit amet, consetetur sadipscing elitr, sed diam nonumy eirmod tempor invidunt
ut labore et dolore magna aliquyam erat, sed diam voluptua."
503,map,Information Point,information,,,47.0571514,8.3107417,Information,"
Lorem ipsum dolor sit amet, consetetur sadipscing elitr, sed diam nonumy eirmod tempor invidunt
ut labore et dolore magna aliquyam erat, sed diam voluptua."
511,,Balm,hotel,,https://www.balm.ch/,47.0443996,8.3682467,Beherbergung,"
Lorem ipsum dolor sit amet, consetetur sadipscing elitr, sed diam nonumy eirmod tempor invidunt
ut labore et dolore magna aliquyam erat, sed diam voluptua."
557,,Campingplatz Gasthaus Bad,camp_site,+41 41 484 11 63,http://eol.ch/bad/camping.htm,46.9395739,8.0073427,Beherbergung,"
Lorem ipsum dolor sit amet, consetetur sadipscing elitr, sed diam nonumy eirmod tempor invidunt
ut labore et dolore magna aliquyam erat, sed diam voluptua."
572,,Picknick Hasli/Langnau bei Reiden,picnic_site,,,47.2221642,7.9641401,Aktivität,"
Lorem ipsum dolor sit amet, consetetur sadipscing elitr, sed diam nonumy eirmod tempor invidunt
ut labore et dolore magna aliquyam erat, sed diam voluptua."
573,,The Tourist Hotel,hotel,,,47.0529705,8.3004406,Beherbergung,"
Lorem ipsum dolor sit amet, consetetur sadipscing elitr, sed diam nonumy eirmod tempor invidunt
ut labore et dolore magna aliquyam erat, sed diam voluptua."
585,,Wilden Mann,hotel,,,47.0503262,8.3030689,Beherbergung,"
Lorem ipsum dolor sit amet, consetetur sadipscing elitr, sed diam nonumy eirmod tempor invidunt
ut labore et dolore magna aliquyam erat, sed diam voluptua."
591,,Aquafit,hotel,,https://www.aquafit-sursee.ch/,47.1734362,8.0990968,Beherbergung,"
Lorem ipsum dolor sit amet, consetetur sadipscing elitr, sed diam nonumy eirmod tempor invidunt
ut labore et dolore magna aliquyam erat, sed diam voluptua."
599,,Pfadiheim Lochbrunnen,hostel,,,47.2419367,7.9924205,Beherbergung,"
Lorem ipsum dolor sit amet, consetetur sadipscing elitr, sed diam nonumy eirmod tempor invidunt
ut labore et dolore magna aliquyam erat, sed diam voluptua."
600,,Schloss Marienburg,attraction,,http://www.kloster-wikon.ch/schloss-wikon.html,47.2652847,7.9707163,Aktivität,"
Lorem ipsum dolor sit amet, consetetur sadipscing elitr, sed diam nonumy eirmod tempor invidunt
ut labore et dolore magna aliquyam erat, sed diam voluptua."
604,,Hotel Restaurant Feld,hotel,,,47.1619980,8.1147759,Beherbergung,"
Lorem ipsum dolor sit amet, consetetur sadipscing elitr, sed diam nonumy eirmod tempor invidunt
ut labore et dolore magna aliquyam erat, sed diam voluptua."
606,,Hirschen,hotel,,http://www.hirschen-oberkirch.ch/,47.1556015,8.1149794,Beherbergung,"
Lorem ipsum dolor sit amet, consetetur sadipscing elitr, sed diam nonumy eirmod tempor invidunt
ut labore et dolore magna aliquyam erat, sed diam voluptua."
625,,Schlüssel,hotel,,http://www.schluessel-luzern.ch,47.0498617,8.3029627,Beherbergung,"
Lorem ipsum dolor sit amet, consetetur sadipscing elitr, sed diam nonumy eirmod tempor invidunt
ut labore et dolore magna aliquyam erat, sed diam voluptua."
630,,Brüggli,motel,,,47.1096196,8.3217880,Beherbergung,"
Lorem ipsum dolor sit amet, consetetur sadipscing elitr, sed diam nonumy eirmod tempor invidunt
ut labore et dolore magna aliquyam erat, sed diam voluptua."
631,,Renaissance,hotel,,,47.0489067,8.3070708,Beherbergung,"
Lorem ipsum dolor sit amet, consetetur sadipscing elitr, sed diam nonumy eirmod tempor invidunt
ut labore et dolore magna aliquyam erat, sed diam voluptua."
632,,Europaplatz,viewpoint,,,47.0513441,8.3122744,Aktivität,"
Lorem ipsum dolor sit amet, consetetur sadipscing elitr, sed diam nonumy eirmod tempor invidunt
ut labore et dolore magna aliquyam erat, sed diam voluptua."
633,,Hotel Restaurant Zellfeld,hotel,,http://www.zellfeld.ch/,47.1787511,8.1297111,Beherbergung,"
Lorem ipsum dolor sit amet, consetetur sadipscing elitr, sed diam nonumy eirmod tempor invidunt
ut labore et dolore magna aliquyam erat, sed diam voluptua."
641,,Hotel Continental-Park,hotel,+41 41 228 90 50,http://www.continental.ch,47.0487020,8.3090466,Beherbergung,"
Lorem ipsum dolor sit amet, consetetur sadipscing elitr, sed diam nonumy eirmod tempor invidunt
ut labore et dolore magna aliquyam erat, sed diam voluptua."
653,,Landgasthof Hotel Menzberg,hotel,,https://www.hotel-menzberg.ch/,47.0407222,7.9958789,Beherbergung,"
Lorem ipsum dolor sit amet, consetetur sadipscing elitr, sed diam nonumy eirmod tempor invidunt
ut labore et dolore magna aliquyam erat, sed diam voluptua."
662,,Michaelskreuz,viewpoint,,,47.1145506,8.4172476,Aktivität,"
Lorem ipsum dolor sit amet, consetetur sadipscing elitr, sed diam nonumy eirmod tempor invidunt
ut labore et dolore magna aliquyam erat, sed diam voluptua."
670,,Hotel Des Alpes,hotel,,https://www.desalpes-luzern.ch/,47.0522175,8.3074624,Beherbergung,"
Lorem ipsum dolor sit amet, consetetur sadipscing elitr, sed diam nonumy eirmod tempor invidunt
ut labore et dolore magna aliquyam erat, sed diam voluptua."
692,,Spanschachtelmuseum,museum,,,47.1487285,8.0014826,Aktivität,"
Lorem ipsum dolor sit amet, consetetur sadipscing elitr, sed diam nonumy eirmod tempor invidunt
ut labore et dolore magna aliquyam erat, sed diam voluptua."
706,,Hotel-Restaurant Bildungszentrum Matt,hotel,,,47.0179632,8.1786476,Beherbergung,"
Lorem ipsum dolor sit amet, consetetur sadipscing elitr, sed diam nonumy eirmod tempor invidunt
ut labore et dolore magna aliquyam erat, sed diam voluptua."
719,,Aussicht mit 2 Bänklein,viewpoint,,,47.1934563,8.3173267,Aktivität,"
Lorem ipsum dolor sit amet, consetetur sadipscing elitr, sed diam nonumy eirmod tempor invidunt
ut labore et dolore magna aliquyam erat, sed diam voluptua."
730,,Mohren,hotel,,http://www.mohren.ch/,47.1205963,7.9928966,Beherbergung,"
Lorem ipsum dolor sit amet, consetetur sadipscing elitr, sed diam nonumy eirmod tempor invidunt
ut labore et dolore magna aliquyam erat, sed diam voluptua."
731,,Post,hotel,+41 41 970 25 06,https://www.gasthauspostwillisau.ch/,47.1216036,7.9922237,Beherbergung,"
Lorem ipsum dolor sit amet, consetetur sadipscing elitr, sed diam nonumy eirmod tempor invidunt
ut labore et dolore magna aliquyam erat, sed diam voluptua."
734,,Ibis Styles Luzern City,hotel,,,47.0567210,8.3118262,Beherbergung,"
Lorem ipsum dolor sit amet, consetetur sadipscing elitr, sed diam nonumy eirmod tempor invidunt
ut labore et dolore magna aliquyam erat, sed diam voluptua."
743,,Hammetschwand-Lift,attraction,,,47.0009446,8.3963472,Aktivität,"
Lorem ipsum dolor sit amet, consetetur sadipscing elitr, sed diam nonumy eirmod tempor invidunt
ut labore et dolore magna aliquyam erat, sed diam voluptua."
749,,Gasthof Kreuz,hotel,,,47.0514942,8.3830003,Beherbergung,"
Lorem ipsum dolor sit amet, consetetur sadipscing elitr, sed diam nonumy eirmod tempor invidunt
ut labore et dolore magna aliquyam erat, sed diam voluptua."
750,,Krone,hotel,,http://www.gasthauskrone.ch/,47.1353191,8.1918899,Beherbergung,"
Lorem ipsum dolor sit amet, consetetur sadipscing elitr, sed diam nonumy eirmod tempor invidunt
ut labore et dolore magna aliquyam erat, sed diam voluptua."
752,,Spreuerbrücke,attraction,,,47.0516326,8.3014718,Aktivität,"
Lorem ipsum dolor sit amet, consetetur sadipscing elitr, sed diam nonumy eirmod tempor invidunt
ut labore et dolore magna aliquyam erat, sed diam voluptua."
761,,Grillrestaurant füür ond flamme,hotel,,http://www.grillrestaurant-neudorf.ch/,47.1774146,8.2094373,Beherbergung,"
Lorem ipsum dolor sit amet, consetetur sadipscing elitr, sed diam nonumy eirmod tempor invidunt
ut labore et dolore magna aliquyam erat, sed diam voluptua."
765,,GZI Seminar- und Kongresshotel,hotel,,https://www.dasseminarhotel.ch/hotel/gebaeude-gzi/,47.1399171,8.1309553,Beherbergung,"
Lorem ipsum dolor sit amet, consetetur sadipscing elitr, sed diam nonumy eirmod tempor invidunt
ut labore et dolore magna aliquyam erat, sed diam voluptua."
767,,Mooraculum,theme_park,,,46.8087354,8.0263978,Aktivität,"
Lorem ipsum dolor sit amet, consetetur sadipscing elitr, sed diam nonumy eirmod tempor invidunt
ut labore et dolore magna aliquyam erat, sed diam voluptua."
779,,Hotel Europe,hotel,,,47.0557831,8.3248886,Beherbergung,"
Lorem ipsum dolor sit amet, consetetur sadipscing elitr, sed diam nonumy eirmod tempor invidunt
ut labore et dolore magna aliquyam erat, sed diam voluptua."
780,,Unteregg,picnic_site,,,47.1328575,7.9763962,Aktivität,"
Lorem ipsum dolor sit amet, consetetur sadipscing elitr, sed diam nonumy eirmod tempor invidunt
ut labore et dolore magna aliquyam erat, sed diam voluptua."
784,,Beobachtungshütte,viewpoint,,,47.1727282,8.2803173,Aktivität,"
Lorem ipsum dolor sit amet, consetetur sadipscing elitr, sed diam nonumy eirmod tempor invidunt
ut labore et dolore magna aliquyam erat, sed diam voluptua."
785,,Flutmulde,viewpoint,,,47.1761191,8.2774395,Aktivität,"
Lorem ipsum dolor sit amet, consetetur sadipscing elitr, sed diam nonumy eirmod tempor invidunt
ut labore et dolore magna aliquyam erat, sed diam voluptua."
786,,Start Riffigweiher,viewpoint,,,47.0881117,8.2680856,Aktivität,"
Lorem ipsum dolor sit amet, consetetur sadipscing elitr, sed diam nonumy eirmod tempor invidunt
ut labore et dolore magna aliquyam erat, sed diam voluptua."
800,,Twingkreuz Staltefeld,attraction,,,47.1081295,8.0884324,Aktivität,"
Lorem ipsum dolor sit amet, consetetur sadipscing elitr, sed diam nonumy eirmod tempor invidunt
ut labore et dolore magna aliquyam erat, sed diam voluptua."
803,office,Tourist-Information VItznau,information,,http://www.wvrt.ch,47.0097574,8.4830229,Information,"
Lorem ipsum dolor sit amet, consetetur sadipscing elitr, sed diam nonumy eirmod tempor invidunt
ut labore et dolore magna aliquyam erat, sed diam voluptua."
820,,Der Obelisk,artwork,,,47.1136558,8.0842065,Aktivität,"
Lorem ipsum dolor sit amet, consetetur sadipscing elitr, sed diam nonumy eirmod tempor invidunt
ut labore et dolore magna aliquyam erat, sed diam voluptua."
825,,Blosenberg,viewpoint,,,47.1865637,8.1760891,Aktivität,"
Lorem ipsum dolor sit amet, consetetur sadipscing elitr, sed diam nonumy eirmod tempor invidunt
ut labore et dolore magna aliquyam erat, sed diam voluptua."
828,,The Lubo,hotel,+41 79 770 22 88,https://www.the-lubo.ch/,47.0523435,8.3047521,Beherbergung,"
Lorem ipsum dolor sit amet, consetetur sadipscing elitr, sed diam nonumy eirmod tempor invidunt
ut labore et dolore magna aliquyam erat, sed diam voluptua."
829,,Zur Linde,hotel,,,47.0517260,8.3046614,Beherbergung,"
Lorem ipsum dolor sit amet, consetetur sadipscing elitr, sed diam nonumy eirmod tempor invidunt
ut labore et dolore magna aliquyam erat, sed diam voluptua."
835,,Seppi a dr Wiggere,picnic_site,,,47.0359104,7.8843003,Aktivität,"
Lorem ipsum dolor sit amet, consetetur sadipscing elitr, sed diam nonumy eirmod tempor invidunt
ut labore et dolore magna aliquyam erat, sed diam voluptua."
857,,Picknickplatz Wagenmoos,picnic_site,,,47.0740433,8.3937162,Aktivität,"
Lorem ipsum dolor sit amet, consetetur sadipscing elitr, sed diam nonumy eirmod tempor invidunt
ut labore et dolore magna aliquyam erat, sed diam voluptua."
859,,Feuerstelle Seebad Gelfingen,picnic_site,,,47.2129097,8.2630795,Aktivität,"
Lorem ipsum dolor sit amet, consetetur sadipscing elitr, sed diam nonumy eirmod tempor invidunt
ut labore et dolore magna aliquyam erat, sed diam voluptua."
864,,Kurhaus Heiligkreuz,hotel,+41 41 484 23 09,,46.9497527,8.0494532,Beherbergung,"
Lorem ipsum dolor sit amet, consetetur sadipscing elitr, sed diam nonumy eirmod tempor invidunt
ut labore et dolore magna aliquyam erat, sed diam voluptua."
872,office,Verkehrshaus,information,,,47.0531970,8.3354485,Information,"
Lorem ipsum dolor sit amet, consetetur sadipscing elitr, sed diam nonumy eirmod tempor invidunt
ut labore et dolore magna aliquyam erat, sed diam voluptua."
873,,Dorf- und Glasmuseum,museum,,http://www.wauwilermuseum.ch/,47.1845587,8.0190516,Aktivität,"
Lorem ipsum dolor sit amet, consetetur sadipscing elitr, sed diam nonumy eirmod tempor invidunt
ut labore et dolore magna aliquyam erat, sed diam voluptua."
874,,Campus Sursee Seminarzentrum,hotel,,http://seminarzentrum.campus-sursee.ch/,47.1617834,8.0892999,Beherbergung,"
Lorem ipsum dolor sit amet, consetetur sadipscing elitr, sed diam nonumy eirmod tempor invidunt
ut labore et dolore magna aliquyam erat, sed diam voluptua."
877,,KKLB,museum,+41 (0)41 930 38 38,https://www.kklb.ch/,47.2009930,8.1690952,Aktivität,"
Lorem ipsum dolor sit amet, consetetur sadipscing elitr, sed diam nonumy eirmod tempor invidunt
ut labore et dolore magna aliquyam erat, sed diam voluptua."
880,,Chilewald,picnic_site,,,46.9736608,8.0823427,Aktivität,"
Lorem ipsum dolor sit amet, consetetur sadipscing elitr, sed diam nonumy eirmod tempor invidunt
ut labore et dolore magna aliquyam erat, sed diam voluptua."
881,,4 Dimensionen,artwork,,,47.1041539,8.3753128,Aktivität,"
Lorem ipsum dolor sit amet, consetetur sadipscing elitr, sed diam nonumy eirmod tempor invidunt
ut labore et dolore magna aliquyam erat, sed diam voluptua."
895,,B&B Rothus,guest_house,,,46.8713987,7.9098151,Beherbergung,"
Lorem ipsum dolor sit amet, consetetur sadipscing elitr, sed diam nonumy eirmod tempor invidunt
ut labore et dolore magna aliquyam erat, sed diam voluptua."
900,,Grillplatz Schiltwald,picnic_site,,,47.0856887,8.3192413,Aktivität,"
Lorem ipsum dolor sit amet, consetetur sadipscing elitr, sed diam nonumy eirmod tempor invidunt
ut labore et dolore magna aliquyam erat, sed diam voluptua."
910,,Sempacherhof,hotel,,https://www.sempacherhof.ch/,47.1164213,8.1960933,Beherbergung,"
Lorem ipsum dolor sit amet, consetetur sadipscing elitr, sed diam nonumy eirmod tempor invidunt
ut labore et dolore magna aliquyam erat, sed diam voluptua."
917,,Fieda's Souvenir,attraction,,,47.0110301,8.4831104,Aktivität,"
Lorem ipsum dolor sit amet, consetetur sadipscing elitr, sed diam nonumy eirmod tempor invidunt
ut labore et dolore magna aliquyam erat, sed diam voluptua."
918,,Regionalmuseum Vitznau-Rigi,museum,,https://www.regionalmuseum.ch/,47.0113436,8.4831526,Aktivität,"
Lorem ipsum dolor sit amet, consetetur sadipscing elitr, sed diam nonumy eirmod tempor invidunt
ut labore et dolore magna aliquyam erat, sed diam voluptua."
919,,Hotel Rigi Vitznau,hotel,,,47.0100362,8.4835006,Beherbergung,"
Lorem ipsum dolor sit amet, consetetur sadipscing elitr, sed diam nonumy eirmod tempor invidunt
ut labore et dolore magna aliquyam erat, sed diam voluptua."
920,,Terrasse am See,hotel,,https://www.hotel-terrasse.ch/,47.0098977,8.4827011,Beherbergung,"
Lorem ipsum dolor sit amet, consetetur sadipscing elitr, sed diam nonumy eirmod tempor invidunt
ut labore et dolore magna aliquyam erat, sed diam voluptua."
921,,Vitznauerhof,hotel,,,47.0077833,8.4832238,Beherbergung,"
Lorem ipsum dolor sit amet, consetetur sadipscing elitr, sed diam nonumy eirmod tempor invidunt
ut labore et dolore magna aliquyam erat, sed diam voluptua."
922,,Grösste Schweizerfahne 31x31m,attraction,,http://www.schweizerfahne.ch,47.0175087,8.4915148,Aktivität,"
Lorem ipsum dolor sit amet, consetetur sadipscing elitr, sed diam nonumy eirmod tempor invidunt
ut labore et dolore magna aliquyam erat, sed diam voluptua."
923,,Teddybär-Museum,museum,,,47.1358235,8.1916387,Aktivität,"
Lorem ipsum dolor sit amet, consetetur sadipscing elitr, sed diam nonumy eirmod tempor invidunt
ut labore et dolore magna aliquyam erat, sed diam voluptua."
926,,Hotel Rigi Kaltbad,hotel,,https://www.hotelrigikaltbad.ch/,47.0439689,8.4652446,Beherbergung,"
Lorem ipsum dolor sit amet, consetetur sadipscing elitr, sed diam nonumy eirmod tempor invidunt
ut labore et dolore magna aliquyam erat, sed diam voluptua."
927,,Edelweiss,hotel,+41413998800,http://www.edelweiss-rigi.ch/,47.0483964,8.4641531,Beherbergung,"
Lorem ipsum dolor sit amet, consetetur sadipscing elitr, sed diam nonumy eirmod tempor invidunt
ut labore et dolore magna aliquyam erat, sed diam voluptua."
928,,Barabas Hotel Luzern,hotel,,https://www.barabas-luzern.ch/,47.0528050,8.3041815,Beherbergung,"
Lorem ipsum dolor sit amet, consetetur sadipscing elitr, sed diam nonumy eirmod tempor invidunt
ut labore et dolore magna aliquyam erat, sed diam voluptua."
929,office,Rigi,information,,,47.0440936,8.4661601,Information,"
Lorem ipsum dolor sit amet, consetetur sadipscing elitr, sed diam nonumy eirmod tempor invidunt
ut labore et dolore magna aliquyam erat, sed diam voluptua."
936,,Waldstätterhof,hotel,,,47.0492499,8.3093045,Beherbergung,"
Lorem ipsum dolor sit amet, consetetur sadipscing elitr, sed diam nonumy eirmod tempor invidunt
ut labore et dolore magna aliquyam erat, sed diam voluptua."
937,,Flora,hotel,,,47.0087061,8.4838135,Beherbergung,"
Lorem ipsum dolor sit amet, consetetur sadipscing elitr, sed diam nonumy eirmod tempor invidunt
ut labore et dolore magna aliquyam erat, sed diam voluptua."
938,,Muth Campus,hotel,,,47.0147047,8.4800356,Beherbergung,"
Lorem ipsum dolor sit amet, consetetur sadipscing elitr, sed diam nonumy eirmod tempor invidunt
ut labore et dolore magna aliquyam erat, sed diam voluptua."
942,,Hirschenplatz Apartments,apartment,,,47.0523884,8.3056685,Beherbergung,"
Lorem ipsum dolor sit amet, consetetur sadipscing elitr, sed diam nonumy eirmod tempor invidunt
ut labore et dolore magna aliquyam erat, sed diam voluptua."
943,,Hotel Falken,hotel,,,47.0536574,8.3076145,Beherbergung,"
Lorem ipsum dolor sit amet, consetetur sadipscing elitr, sed diam nonumy eirmod tempor invidunt
ut labore et dolore magna aliquyam erat, sed diam voluptua."
944,,Hotel des Balances,hotel,,https://www.balances.ch/,47.0515076,8.3044753,Beherbergung,"
Lorem ipsum dolor sit amet, consetetur sadipscing elitr, sed diam nonumy eirmod tempor invidunt
ut labore et dolore magna aliquyam erat, sed diam voluptua."
946,,Peter und Paul,guest_house,,http://peterpaulhotel.ch/,47.1294978,7.9986643,Beherbergung,"
Lorem ipsum dolor sit amet, consetetur sadipscing elitr, sed diam nonumy eirmod tempor invidunt
ut labore et dolore magna aliquyam erat, sed diam voluptua."
949,,Chessiloch,attraction,,,46.8709027,8.0475570,Aktivität,"
Lorem ipsum dolor sit amet, consetetur sadipscing elitr, sed diam nonumy eirmod tempor invidunt
ut labore et dolore magna aliquyam erat, sed diam voluptua."
953,,Rebstock,hotel,,http://www.rebstock-wolhusen.ch/,47.0627709,8.0726652,Beherbergung,"
Lorem ipsum dolor sit amet, consetetur sadipscing elitr, sed diam nonumy eirmod tempor invidunt
ut labore et dolore magna aliquyam erat, sed diam voluptua."
955,,Bella Vista,hotel,,,47.1691094,8.0972027,Beherbergung,"
Lorem ipsum dolor sit amet, consetetur sadipscing elitr, sed diam nonumy eirmod tempor invidunt
ut labore et dolore magna aliquyam erat, sed diam voluptua."
962,map,Stadtplan Luzern,information,,,47.0552783,8.3187856,Information,"
Lorem ipsum dolor sit amet, consetetur sadipscing elitr, sed diam nonumy eirmod tempor invidunt
ut labore et dolore magna aliquyam erat, sed diam voluptua."
963,map,Stadtplan Luzern,information,,,47.0528882,8.3085429,Information,"
Lorem ipsum dolor sit amet, consetetur sadipscing elitr, sed diam nonumy eirmod tempor invidunt
ut labore et dolore magna aliquyam erat, sed diam voluptua."
966,board,Tier- und Pflanzenwelt,information,,,47.0240440,7.8938493,Information,"
Lorem ipsum dolor sit amet, consetetur sadipscing elitr, sed diam nonumy eirmod tempor invidunt
ut labore et dolore magna aliquyam erat, sed diam voluptua."
976,,Schönetüel,viewpoint,,,47.1349285,7.8935096,Aktivität,"
Lorem ipsum dolor sit amet, consetetur sadipscing elitr, sed diam nonumy eirmod tempor invidunt
ut labore et dolore magna aliquyam erat, sed diam voluptua."
1015,board,Quartier-Infos + Obligatorisch Schiessen,information,,,47.0304135,8.2775208,Information,"
Lorem ipsum dolor sit amet, consetetur sadipscing elitr, sed diam nonumy eirmod tempor invidunt
ut labore et dolore magna aliquyam erat, sed diam voluptua."
1026,board,Felsentor,information,,,47.0351822,8.4684156,Information,"
Lorem ipsum dolor sit amet, consetetur sadipscing elitr, sed diam nonumy eirmod tempor invidunt
ut labore et dolore magna aliquyam erat, sed diam voluptua."
1027,board,Mark Twain Tafel Rigi Kaltbad,information,,,47.0441380,8.4668984,Information,"
Lorem ipsum dolor sit amet, consetetur sadipscing elitr, sed diam nonumy eirmod tempor invidunt
ut labore et dolore magna aliquyam erat, sed diam voluptua."
1028,board,Kapelle Heiligkreuz,information,,,47.0353910,8.4616852,Information,"
Lorem ipsum dolor sit amet, consetetur sadipscing elitr, sed diam nonumy eirmod tempor invidunt
ut labore et dolore magna aliquyam erat, sed diam voluptua."
1029,,Mark Twain Tafel Sentiberg,information,,,47.0357353,8.4563830,Information,"
Lorem ipsum dolor sit amet, consetetur sadipscing elitr, sed diam nonumy eirmod tempor invidunt
ut labore et dolore magna aliquyam erat, sed diam voluptua."
1031,,Alexander,hotel,+41 41 392 22 22,http://www.alexander-gerbi.ch,47.0295367,8.4198653,Beherbergung,"
Lorem ipsum dolor sit amet, consetetur sadipscing elitr, sed diam nonumy eirmod tempor invidunt
ut labore et dolore magna aliquyam erat, sed diam voluptua."
1033,,Hommage à Wagner,artwork,,,47.0461575,8.3211160,Aktivität,"
Lorem ipsum dolor sit amet, consetetur sadipscing elitr, sed diam nonumy eirmod tempor invidunt
ut labore et dolore magna aliquyam erat, sed diam voluptua."
1035,,Magic Hotel,hotel,,,47.0519738,8.3057335,Beherbergung,"
Lorem ipsum dolor sit amet, consetetur sadipscing elitr, sed diam nonumy eirmod tempor invidunt
ut labore et dolore magna aliquyam erat, sed diam voluptua."
1036,,Kunstpavillion,museum,,,47.0465647,8.2986147,Aktivität,"
Lorem ipsum dolor sit amet, consetetur sadipscing elitr, sed diam nonumy eirmod tempor invidunt
ut labore et dolore magna aliquyam erat, sed diam voluptua."
1037,,Zivilschutzanlage Sonnenberg,museum,,,47.0464640,8.2966378,Aktivität,"
Lorem ipsum dolor sit amet, consetetur sadipscing elitr, sed diam nonumy eirmod tempor invidunt
ut labore et dolore magna aliquyam erat, sed diam voluptua."
1038,,B&B Bettstadt,hotel,,http://www.bettstatt.ch,47.0441840,8.3084851,Beherbergung,"
Lorem ipsum dolor sit amet, consetetur sadipscing elitr, sed diam nonumy eirmod tempor invidunt
ut labore et dolore magna aliquyam erat, sed diam voluptua."
1045,,Gerbi,hotel,+41 41 392 2224,http://www.alexander-gerbi.ch,47.0292158,8.4191843,Beherbergung,"
Lorem ipsum dolor sit amet, consetetur sadipscing elitr, sed diam nonumy eirmod tempor invidunt
ut labore et dolore magna aliquyam erat, sed diam voluptua."
1053,,Industriedenkmal,artwork,,,47.0383545,8.1820897,Aktivität,"
Lorem ipsum dolor sit amet, consetetur sadipscing elitr, sed diam nonumy eirmod tempor invidunt
ut labore et dolore magna aliquyam erat, sed diam voluptua."
1066,,Hirschen,hotel,+41 41 552 30 91,,47.2057815,8.1910687,Beherbergung,"
Lorem ipsum dolor sit amet, consetetur sadipscing elitr, sed diam nonumy eirmod tempor invidunt
ut labore et dolore magna aliquyam erat, sed diam voluptua."
1067,,Hotel / Restaurant Ochsen,hotel,+41 41 930 15 07,,47.2064676,8.1914510,Beherbergung,"
Lorem ipsum dolor sit amet, consetetur sadipscing elitr, sed diam nonumy eirmod tempor invidunt
ut labore et dolore magna aliquyam erat, sed diam voluptua."
1099,,Grillplatz,picnic_site,,,47.1916957,7.9938044,Aktivität,"
Lorem ipsum dolor sit amet, consetetur sadipscing elitr, sed diam nonumy eirmod tempor invidunt
ut labore et dolore magna aliquyam erat, sed diam voluptua."
1110,,Grillstelle Schlänggebröggli,picnic_site,,,47.0425846,8.0913836,Aktivität,"
Lorem ipsum dolor sit amet, consetetur sadipscing elitr, sed diam nonumy eirmod tempor invidunt
ut labore et dolore magna aliquyam erat, sed diam voluptua."
1136,,Hotel Alpina,hotel,+41 41 210 00 77,,47.0492824,8.3084368,Beherbergung,"
Lorem ipsum dolor sit amet, consetetur sadipscing elitr, sed diam nonumy eirmod tempor invidunt
ut labore et dolore magna aliquyam erat, sed diam voluptua."
1137,,Auguste Piccard (PX 8),attraction,,,47.0520494,8.3370549,Aktivität,"
Lorem ipsum dolor sit amet, consetetur sadipscing elitr, sed diam nonumy eirmod tempor invidunt
ut labore et dolore magna aliquyam erat, sed diam voluptua."
1142,,Wiesner Mysterion,hotel,+41 41 486 12 41,https://www.wiesner-mysterion.ch/,46.9791470,7.9860104,Beherbergung,"
Lorem ipsum dolor sit amet, consetetur sadipscing elitr, sed diam nonumy eirmod tempor invidunt
ut labore et dolore magna aliquyam erat, sed diam voluptua."
1180,board,Ostergau,information,,,47.1096032,8.0300421,Information,"
Lorem ipsum dolor sit amet, consetetur sadipscing elitr, sed diam nonumy eirmod tempor invidunt
ut labore et dolore magna aliquyam erat, sed diam voluptua."
1205,,Tanzerin,artwork,,,47.0311392,8.4269576,Aktivität,"
Lorem ipsum dolor sit amet, consetetur sadipscing elitr, sed diam nonumy eirmod tempor invidunt
ut labore et dolore magna aliquyam erat, sed diam voluptua."
1295,board,Herzschlaufe - Seetal,information,,,47.2792540,8.2681035,Information,"
Lorem ipsum dolor sit amet, consetetur sadipscing elitr, sed diam nonumy eirmod tempor invidunt
ut labore et dolore magna aliquyam erat, sed diam voluptua."
1352,,Chärnsmatt,hotel,,,47.1000593,8.2687408,Beherbergung,"
Lorem ipsum dolor sit amet, consetetur sadipscing elitr, sed diam nonumy eirmod tempor invidunt
ut labore et dolore magna aliquyam erat, sed diam voluptua."
1385,,Vison Apartments,hotel,,,47.0437870,8.3085162,Beherbergung,"
Lorem ipsum dolor sit amet, consetetur sadipscing elitr, sed diam nonumy eirmod tempor invidunt
ut labore et dolore magna aliquyam erat, sed diam voluptua."
1387,,Bammerthütte,chalet,,,47.2456560,8.0959804,Beherbergung,"
Lorem ipsum dolor sit amet, consetetur sadipscing elitr, sed diam nonumy eirmod tempor invidunt
ut labore et dolore magna aliquyam erat, sed diam voluptua."
1389,,Waldegg Parkplatz,caravan_site,,,47.0565602,8.2724108,Beherbergung,"
Lorem ipsum dolor sit amet, consetetur sadipscing elitr, sed diam nonumy eirmod tempor invidunt
ut labore et dolore magna aliquyam erat, sed diam voluptua."
1390,,Foto-Spot Luzern,viewpoint,,,47.0511922,8.2948718,Aktivität,"
Lorem ipsum dolor sit amet, consetetur sadipscing elitr, sed diam nonumy eirmod tempor invidunt
ut labore et dolore magna aliquyam erat, sed diam voluptua."
1391,,Zytturm,viewpoint,,,47.0543471,8.3044748,Aktivität,"
Lorem ipsum dolor sit amet, consetetur sadipscing elitr, sed diam nonumy eirmod tempor invidunt
ut labore et dolore magna aliquyam erat, sed diam voluptua."
1392,,Schirmerturm,viewpoint,,,47.0547271,8.3055841,Aktivität,"
Lorem ipsum dolor sit amet, consetetur sadipscing elitr, sed diam nonumy eirmod tempor invidunt
ut labore et dolore magna aliquyam erat, sed diam voluptua."
1393,,Wachtturm,viewpoint,,,47.0540136,8.3031923,Aktivität,"
Lorem ipsum dolor sit amet, consetetur sadipscing elitr, sed diam nonumy eirmod tempor invidunt
ut labore et dolore magna aliquyam erat, sed diam voluptua."
1397,,Graziella,hotel,,,47.0284284,8.4064112,Beherbergung,"
Lorem ipsum dolor sit amet, consetetur sadipscing elitr, sed diam nonumy eirmod tempor invidunt
ut labore et dolore magna aliquyam erat, sed diam voluptua."
1433,,Bnb Bauernhof Bisang,guest_house,,https://www.kohlweid.ch/,47.1248775,8.1412500,Beherbergung,"
Lorem ipsum dolor sit amet, consetetur sadipscing elitr, sed diam nonumy eirmod tempor invidunt
ut labore et dolore magna aliquyam erat, sed diam voluptua."
1486,,Friedau,guest_house,,http://www.friedau.net/,47.1360215,8.1167400,Beherbergung,"
Lorem ipsum dolor sit amet, consetetur sadipscing elitr, sed diam nonumy eirmod tempor invidunt
ut labore et dolore magna aliquyam erat, sed diam voluptua."
1586,,Wellsberg,guest_house,,http://www.wellsberg.ch/,47.0959894,7.9932108,Beherbergung,"
Lorem ipsum dolor sit amet, consetetur sadipscing elitr, sed diam nonumy eirmod tempor invidunt
ut labore et dolore magna aliquyam erat, sed diam voluptua."
1620,,Damhirsch,attraction,,,47.1230920,7.9894189,Aktivität,"
Lorem ipsum dolor sit amet, consetetur sadipscing elitr, sed diam nonumy eirmod tempor invidunt
ut labore et dolore magna aliquyam erat, sed diam voluptua."
1621,,Zwergziege,attraction,,,47.1227909,7.9907586,Aktivität,"
Lorem ipsum dolor sit amet, consetetur sadipscing elitr, sed diam nonumy eirmod tempor invidunt
ut labore et dolore magna aliquyam erat, sed diam voluptua."
1622,,"Gänse, Hühner, Enten",attraction,,,47.1226969,7.9900532,Aktivität,"
Lorem ipsum dolor sit amet, consetetur sadipscing elitr, sed diam nonumy eirmod tempor invidunt
ut labore et dolore magna aliquyam erat, sed diam voluptua."
1630,board,Waldreservat Staldig,information,,,47.0314990,8.1025752,Information,"
Lorem ipsum dolor sit amet, consetetur sadipscing elitr, sed diam nonumy eirmod tempor invidunt
ut labore et dolore magna aliquyam erat, sed diam voluptua."
1639,office,Willisau Tourismus,information,+41 41 970 26 66,https://www.willisau-tourismus.ch,47.1209498,7.9916340,Information,"
Lorem ipsum dolor sit amet, consetetur sadipscing elitr, sed diam nonumy eirmod tempor invidunt
ut labore et dolore magna aliquyam erat, sed diam voluptua."
1671,,Emmenbrücke Camp Stuwo,hostel,,,47.0868726,8.2726732,Beherbergung,"
Lorem ipsum dolor sit amet, consetetur sadipscing elitr, sed diam nonumy eirmod tempor invidunt
ut labore et dolore magna aliquyam erat, sed diam voluptua."
1672,,Frohburg Camp Stuwo,apartment,+41 79 861 45 12,https://stuwo.ch/frohburg-camp/,47.0653731,8.2818255,Beherbergung,"
Lorem ipsum dolor sit amet, consetetur sadipscing elitr, sed diam nonumy eirmod tempor invidunt
ut labore et dolore magna aliquyam erat, sed diam voluptua."
1673,,Schappen Camp Stuwo,hostel,,,47.0337434,8.2754925,Beherbergung,"
Lorem ipsum dolor sit amet, consetetur sadipscing elitr, sed diam nonumy eirmod tempor invidunt
ut labore et dolore magna aliquyam erat, sed diam voluptua."
1674,,3d Bogenparcours,attraction,+41 41 488 12 60,http://www.go-in-soerenberg.ch,46.8221037,8.0312135,Aktivität,"
Lorem ipsum dolor sit amet, consetetur sadipscing elitr, sed diam nonumy eirmod tempor invidunt
ut labore et dolore magna aliquyam erat, sed diam voluptua."
1675,,Hotel GO-IN,hotel,+41 41 488 12 60,http://www.go-in-soerenberg.ch,46.8220866,8.0310975,Beherbergung,"
Lorem ipsum dolor sit amet, consetetur sadipscing elitr, sed diam nonumy eirmod tempor invidunt
ut labore et dolore magna aliquyam erat, sed diam voluptua."
1677,board,Der Waldweiher,information,,,47.0482846,8.2846108,Information,"
Lorem ipsum dolor sit amet, consetetur sadipscing elitr, sed diam nonumy eirmod tempor invidunt
ut labore et dolore magna aliquyam erat, sed diam voluptua."
1678,,Der Hahn,artwork,,,47.0533896,8.2540924,Aktivität,"
Lorem ipsum dolor sit amet, consetetur sadipscing elitr, sed diam nonumy eirmod tempor invidunt
ut labore et dolore magna aliquyam erat, sed diam voluptua."
1695,,B.H.M.S Campus,hotel,,,47.0521262,8.2983649,Beherbergung,"
Lorem ipsum dolor sit amet, consetetur sadipscing elitr, sed diam nonumy eirmod tempor invidunt
ut labore et dolore magna aliquyam erat, sed diam voluptua."
1710,,Swiss Seasons,guest_house,,https://swiss-seasons.com/,47.2663969,8.2835036,Beherbergung,"
Lorem ipsum dolor sit amet, consetetur sadipscing elitr, sed diam nonumy eirmod tempor invidunt
ut labore et dolore magna aliquyam erat, sed diam voluptua."
1720,,Bellpark Hostel,hostel,,,47.0342806,8.2836686,Beherbergung,"
Lorem ipsum dolor sit amet, consetetur sadipscing elitr, sed diam nonumy eirmod tempor invidunt
ut labore et dolore magna aliquyam erat, sed diam voluptua."
1721,,Wohnsiedlung für Studierende Eichhof,apartment,,https://www.studentroom.ch,47.0421946,8.2972824,Beherbergung,"
Lorem ipsum dolor sit amet, consetetur sadipscing elitr, sed diam nonumy eirmod tempor invidunt
ut labore et dolore magna aliquyam erat, sed diam voluptua."
1723,,Waldhütte Mettmenschongau,chalet,,,47.2668344,8.2917891,Beherbergung,"
Lorem ipsum dolor sit amet, consetetur sadipscing elitr, sed diam nonumy eirmod tempor invidunt
ut labore et dolore magna aliquyam erat, sed diam voluptua."
1726,,Juliusbrunnen,picnic_site,,http://www.juliusbrunnen.ch,47.2185844,8.0126703,Aktivität,"
Lorem ipsum dolor sit amet, consetetur sadipscing elitr, sed diam nonumy eirmod tempor invidunt
ut labore et dolore magna aliquyam erat, sed diam voluptua."
1740,terminal,Luzern,information,,,47.1105888,8.2337267,Information,"
Lorem ipsum dolor sit amet, consetetur sadipscing elitr, sed diam nonumy eirmod tempor invidunt
ut labore et dolore magna aliquyam erat, sed diam voluptua."
1741,,anstatthotel.ch,guest_house,,,47.0682721,8.2789338,Beherbergung,"
Lorem ipsum dolor sit amet, consetetur sadipscing elitr, sed diam nonumy eirmod tempor invidunt
ut labore et dolore magna aliquyam erat, sed diam voluptua."
1749,board,Wiesenpfad,information,,,46.9162175,7.9294655,Information,"
Lorem ipsum dolor sit amet, consetetur sadipscing elitr, sed diam nonumy eirmod tempor invidunt
ut labore et dolore magna aliquyam erat, sed diam voluptua."
1781,,Campingplatz Gerbeweid,camp_site,+41 41 390 15 74,,47.0388734,8.4144783,Beherbergung,"
Lorem ipsum dolor sit amet, consetetur sadipscing elitr, sed diam nonumy eirmod tempor invidunt
ut labore et dolore magna aliquyam erat, sed diam voluptua."
1831,,machART,guest_house,,,47.1355408,8.1908172,Beherbergung,"
Lorem ipsum dolor sit amet, consetetur sadipscing elitr, sed diam nonumy eirmod tempor invidunt
ut labore et dolore magna aliquyam erat, sed diam voluptua."
1897,,Felsentor,guest_house,,https://www.felsentor.ch/,47.0351957,8.4687869,Beherbergung,"
Lorem ipsum dolor sit amet, consetetur sadipscing elitr, sed diam nonumy eirmod tempor invidunt
ut labore et dolore magna aliquyam erat, sed diam voluptua."
1898,,Sunnehüsli,chalet,,,47.0362635,8.4748882,Beherbergung,"
Lorem ipsum dolor sit amet, consetetur sadipscing elitr, sed diam nonumy eirmod tempor invidunt
ut labore et dolore magna aliquyam erat, sed diam voluptua."
1910,,Oberänetweid,viewpoint,,,47.0822652,8.3661653,Aktivität,"
Lorem ipsum dolor sit amet, consetetur sadipscing elitr, sed diam nonumy eirmod tempor invidunt
ut labore et dolore magna aliquyam erat, sed diam voluptua."
1927,,Cocoschüttler Grillstelle,picnic_site,,,47.0601170,8.3756804,Aktivität,"
Lorem ipsum dolor sit amet, consetetur sadipscing elitr, sed diam nonumy eirmod tempor invidunt
ut labore et dolore magna aliquyam erat, sed diam voluptua."
1943,,Holiday Inn Express Luzern - Kriens,hotel,+41 79 157 34 88,https://www.ihg.com/holidayinnexpress/hotels/us/en/luzern/qljlk/hoteldetail,47.0268334,8.2999016,Beherbergung,"
Lorem ipsum dolor sit amet, consetetur sadipscing elitr, sed diam nonumy eirmod tempor invidunt
ut labore et dolore magna aliquyam erat, sed diam voluptua."
1961,,Europaplatz,information,,,47.1579700,8.0511290,Information,"
Lorem ipsum dolor sit amet, consetetur sadipscing elitr, sed diam nonumy eirmod tempor invidunt
ut labore et dolore magna aliquyam erat, sed diam voluptua."
1962,,Skater Verein Sursee,information,,,47.1669920,8.0980770,Information,"
Lorem ipsum dolor sit amet, consetetur sadipscing elitr, sed diam nonumy eirmod tempor invidunt
ut labore et dolore magna aliquyam erat, sed diam voluptua."
1963,,Capsule Hotel Lucerne,hotel,,https://capsulehotel.ch/,47.0504406,8.3016988,Beherbergung,"
Lorem ipsum dolor sit amet, consetetur sadipscing elitr, sed diam nonumy eirmod tempor invidunt
ut labore et dolore magna aliquyam erat, sed diam voluptua."
1967,,Jugendraum,theme_park,,,47.1367034,8.1930522,Aktivität,"
Lorem ipsum dolor sit amet, consetetur sadipscing elitr, sed diam nonumy eirmod tempor invidunt
ut labore et dolore magna aliquyam erat, sed diam voluptua."
1968,,Seeplätzli,theme_park,,,47.1340033,8.1898749,Aktivität,"
Lorem ipsum dolor sit amet, consetetur sadipscing elitr, sed diam nonumy eirmod tempor invidunt
ut labore et dolore magna aliquyam erat, sed diam voluptua."
1969,,Mülihof Aparthotel Luzern West,hotel,,https://www.aparthotel-luzernwest.ch/,47.1479786,8.0013397,Beherbergung,"
Lorem ipsum dolor sit amet, consetetur sadipscing elitr, sed diam nonumy eirmod tempor invidunt
ut labore et dolore magna aliquyam erat, sed diam voluptua."
1975,,Gasthaus Badhof,hotel,,,47.0489567,8.3564427,Beherbergung,"
Lorem ipsum dolor sit amet, consetetur sadipscing elitr, sed diam nonumy eirmod tempor invidunt
ut labore et dolore magna aliquyam erat, sed diam voluptua."
2053,,Alpenheim,chalet,,http://alpenfreunde.ch/alpenheim/alpenheim,47.0421656,8.4650480,Beherbergung,"
Lorem ipsum dolor sit amet, consetetur sadipscing elitr, sed diam nonumy eirmod tempor invidunt
ut labore et dolore magna aliquyam erat, sed diam voluptua."
2055,,Vogelmatt,chalet,,,47.1680275,8.0661512,Beherbergung,"
Lorem ipsum dolor sit amet, consetetur sadipscing elitr, sed diam nonumy eirmod tempor invidunt
ut labore et dolore magna aliquyam erat, sed diam voluptua."
2069,,Kultur- und Heimatmuseum,museum,,,47.1574964,8.1146170,Aktivität,"
Lorem ipsum dolor sit amet, consetetur sadipscing elitr, sed diam nonumy eirmod tempor invidunt
ut labore et dolore magna aliquyam erat, sed diam voluptua."
2106,,Thorenberg,hotel,,,47.0527614,8.2505251,Beherbergung,"
Lorem ipsum dolor sit amet, consetetur sadipscing elitr, sed diam nonumy eirmod tempor invidunt
ut labore et dolore magna aliquyam erat, sed diam voluptua."
2110,board,Archäologischer Lernpfad Wauwilermoos Station 6,information,,,47.1740360,8.0281631,Information,"
Lorem ipsum dolor sit amet, consetetur sadipscing elitr, sed diam nonumy eirmod tempor invidunt
ut labore et dolore magna aliquyam erat, sed diam voluptua."
2114,board,Archäologischer Lernpfad Wauwilermoos Station 3,information,,,47.1731048,8.0115219,Information,"
Lorem ipsum dolor sit amet, consetetur sadipscing elitr, sed diam nonumy eirmod tempor invidunt
ut labore et dolore magna aliquyam erat, sed diam voluptua."
2115,board,Egolzwil E3,information,,,47.1807461,8.0150843,Information,"
Lorem ipsum dolor sit amet, consetetur sadipscing elitr, sed diam nonumy eirmod tempor invidunt
ut labore et dolore magna aliquyam erat, sed diam voluptua."
2128,map,Pfaffnau,information,,,47.2292206,7.8992341,Information,"
Lorem ipsum dolor sit amet, consetetur sadipscing elitr, sed diam nonumy eirmod tempor invidunt
ut labore et dolore magna aliquyam erat, sed diam voluptua."
2131,map,Wanderland Schweiz,information,,,47.2305449,7.9615178,Information,"
Lorem ipsum dolor sit amet, consetetur sadipscing elitr, sed diam nonumy eirmod tempor invidunt
ut labore et dolore magna aliquyam erat, sed diam voluptua."
2132,map,Langnau bei Reiden,information,,,47.2305223,7.9615414,Information,"
Lorem ipsum dolor sit amet, consetetur sadipscing elitr, sed diam nonumy eirmod tempor invidunt
ut labore et dolore magna aliquyam erat, sed diam voluptua."
2133,map,Wanderland Schweiz,information,,,47.2082192,7.9395979,Information,"
Lorem ipsum dolor sit amet, consetetur sadipscing elitr, sed diam nonumy eirmod tempor invidunt
ut labore et dolore magna aliquyam erat, sed diam voluptua."
2134,,Gameorama,museum,,https://www.gameorama.ch/,47.0502507,8.3013808,Aktivität,"
Lorem ipsum dolor sit amet, consetetur sadipscing elitr, sed diam nonumy eirmod tempor invidunt
ut labore et dolore magna aliquyam erat, sed diam voluptua."
2135,,Chruterepass 2051m,information,,,46.7880063,8.0176467,Information,"
Lorem ipsum dolor sit amet, consetetur sadipscing elitr, sed diam nonumy eirmod tempor invidunt
ut labore et dolore magna aliquyam erat, sed diam voluptua."
2136,,Wannenpass,information,,,46.7813143,7.9950427,Information,"
Lorem ipsum dolor sit amet, consetetur sadipscing elitr, sed diam nonumy eirmod tempor invidunt
ut labore et dolore magna aliquyam erat, sed diam voluptua."
2147,,Zwitscherbar,picnic_site,,,47.0480970,8.3083077,Aktivität,"
Lorem ipsum dolor sit amet, consetetur sadipscing elitr, sed diam nonumy eirmod tempor invidunt
ut labore et dolore magna aliquyam erat, sed diam voluptua."
2152,,be und mee,guest_house,+41 41 397 03 90,,47.0457413,8.4668105,Beherbergung,"
Lorem ipsum dolor sit amet, consetetur sadipscing elitr, sed diam nonumy eirmod tempor invidunt
ut labore et dolore magna aliquyam erat, sed diam voluptua."
2163,board,Bikeroute am Pilatus,information,,,47.0111072,8.2250006,Information,"
Lorem ipsum dolor sit amet, consetetur sadipscing elitr, sed diam nonumy eirmod tempor invidunt
ut labore et dolore magna aliquyam erat, sed diam voluptua."
2176,board,Es geht bachauf,information,,,47.1445909,8.0272370,Information,"
Lorem ipsum dolor sit amet, consetetur sadipscing elitr, sed diam nonumy eirmod tempor invidunt
ut labore et dolore magna aliquyam erat, sed diam voluptua."
2177,board,Wo Land und Wasser sich begegnen,information,,,47.1444619,8.0285346,Information,"
Lorem ipsum dolor sit amet, consetetur sadipscing elitr, sed diam nonumy eirmod tempor invidunt
ut labore et dolore magna aliquyam erat, sed diam voluptua."
2178,board,Bahn frei!,information,,,47.1445235,8.0288699,Information,"
Lorem ipsum dolor sit amet, consetetur sadipscing elitr, sed diam nonumy eirmod tempor invidunt
ut labore et dolore magna aliquyam erat, sed diam voluptua."
2179,board,Wasser und Mensch,information,,,47.1444484,8.0297278,Information,"
Lorem ipsum dolor sit amet, consetetur sadipscing elitr, sed diam nonumy eirmod tempor invidunt
ut labore et dolore magna aliquyam erat, sed diam voluptua."
2180,board,Nahrung für den Bach,information,,,47.1441025,8.0308184,Information,"
Lorem ipsum dolor sit amet, consetetur sadipscing elitr, sed diam nonumy eirmod tempor invidunt
ut labore et dolore magna aliquyam erat, sed diam voluptua."
2181,board,Unsere Rot,information,,,47.1439758,8.0311402,Information,"
Lorem ipsum dolor sit amet, consetetur sadipscing elitr, sed diam nonumy eirmod tempor invidunt
ut labore et dolore magna aliquyam erat, sed diam voluptua."
2183,board,Trinkwasser,information,,,47.1429374,8.0315102,Information,"
Lorem ipsum dolor sit amet, consetetur sadipscing elitr, sed diam nonumy eirmod tempor invidunt
ut labore et dolore magna aliquyam erat, sed diam voluptua."
2184,board,"Klein, aber oho",information,,,47.1424681,8.0317992,Information,"
Lorem ipsum dolor sit amet, consetetur sadipscing elitr, sed diam nonumy eirmod tempor invidunt
ut labore et dolore magna aliquyam erat, sed diam voluptua."
2185,board,Historisches,information,,,47.1424091,8.0317150,Information,"
Lorem ipsum dolor sit amet, consetetur sadipscing elitr, sed diam nonumy eirmod tempor invidunt
ut labore et dolore magna aliquyam erat, sed diam voluptua."
2186,board,Lebendiger Bach,information,,,47.1433583,8.0315339,Information,"
Lorem ipsum dolor sit amet, consetetur sadipscing elitr, sed diam nonumy eirmod tempor invidunt
ut labore et dolore magna aliquyam erat, sed diam voluptua."
2187,board,Schloss Wyher,information,,,47.1421798,8.0244699,Information,"
Lorem ipsum dolor sit amet, consetetur sadipscing elitr, sed diam nonumy eirmod tempor invidunt
ut labore et dolore magna aliquyam erat, sed diam voluptua."
2191,,Sörenberg Platz,caravan_site,,,46.8172627,8.0414883,Beherbergung,"
Lorem ipsum dolor sit amet, consetetur sadipscing elitr, sed diam nonumy eirmod tempor invidunt
ut labore et dolore magna aliquyam erat, sed diam voluptua."
2192,,The Boathouse Lucerne,chalet,,theboathouselucerne.com,47.0324965,8.3381969,Beherbergung,"
Lorem ipsum dolor sit amet, consetetur sadipscing elitr, sed diam nonumy eirmod tempor invidunt
ut labore et dolore magna aliquyam erat, sed diam voluptua."
2193,,KKLB Kunst Trip,museum,+41419303838,http://www.kklb-kunst-trip.ch,47.2011757,8.1687557,Aktivität,"
Lorem ipsum dolor sit amet, consetetur sadipscing elitr, sed diam nonumy eirmod tempor invidunt
ut labore et dolore magna aliquyam erat, sed diam voluptua."
2194,,Kunsthaus Sursee Vier,museum,+41 41 930 38 38,http://www.kunsthaus-sursee.ch,47.1705288,8.1074117,Aktivität,"
Lorem ipsum dolor sit amet, consetetur sadipscing elitr, sed diam nonumy eirmod tempor invidunt
ut labore et dolore magna aliquyam erat, sed diam voluptua."
2196,,Löwengalerie,gallery,,,47.0574747,8.3115580,Aktivität,"
Lorem ipsum dolor sit amet, consetetur sadipscing elitr, sed diam nonumy eirmod tempor invidunt
ut labore et dolore magna aliquyam erat, sed diam voluptua."
2199,board,Der Weiher,information,,,47.1415430,8.1326232,Information,"
Lorem ipsum dolor sit amet, consetetur sadipscing elitr, sed diam nonumy eirmod tempor invidunt
ut labore et dolore magna aliquyam erat, sed diam voluptua."
2207,,simgalerie,gallery,,https://simgalerie.ch/,47.0434393,8.3124037,Aktivität,"
Lorem ipsum dolor sit amet, consetetur sadipscing elitr, sed diam nonumy eirmod tempor invidunt
ut labore et dolore magna aliquyam erat, sed diam voluptua."
2208,,Zahra & Najeeb place,apartment,,,47.0335545,8.3128934,Beherbergung,"
Lorem ipsum dolor sit amet, consetetur sadipscing elitr, sed diam nonumy eirmod tempor invidunt
ut labore et dolore magna aliquyam erat, sed diam voluptua."
2214,,Kraftbaum,attraction,,,46.9515910,8.0462106,Aktivität,"
Lorem ipsum dolor sit amet, consetetur sadipscing elitr, sed diam nonumy eirmod tempor invidunt
ut labore et dolore magna aliquyam erat, sed diam voluptua."
2216,,Wald Kathedrale,attraction,,,47.2024548,8.1843253,Aktivität,"
Lorem ipsum dolor sit amet, consetetur sadipscing elitr, sed diam nonumy eirmod tempor invidunt
ut labore et dolore magna aliquyam erat, sed diam voluptua."
2221,,Goudwäscher,artwork,,,47.0479100,7.9252425,Aktivität,"
Lorem ipsum dolor sit amet, consetetur sadipscing elitr, sed diam nonumy eirmod tempor invidunt
ut labore et dolore magna aliquyam erat, sed diam voluptua."
2229,board,Ostergau,information,,,47.1123206,8.0242836,Information,"
Lorem ipsum dolor sit amet, consetetur sadipscing elitr, sed diam nonumy eirmod tempor invidunt
ut labore et dolore magna aliquyam erat, sed diam voluptua."
2231,,Renggwald,picnic_site,,,47.0353036,8.0126618,Aktivität,"
Lorem ipsum dolor sit amet, consetetur sadipscing elitr, sed diam nonumy eirmod tempor invidunt
ut labore et dolore magna aliquyam erat, sed diam voluptua."
2246,,Vorsicht Greifvogel,information,,,47.1105932,8.2141045,Information,"
Lorem ipsum dolor sit amet, consetetur sadipscing elitr, sed diam nonumy eirmod tempor invidunt
ut labore et dolore magna aliquyam erat, sed diam voluptua."
2247,,Vorsicht Greifvogel,information,,,47.1115572,8.2111622,Information,"
Lorem ipsum dolor sit amet, consetetur sadipscing elitr, sed diam nonumy eirmod tempor invidunt
ut labore et dolore magna aliquyam erat, sed diam voluptua."
2248,route_marker,Herzroute,information,,,47.1135064,8.2082746,Information,"
Lorem ipsum dolor sit amet, consetetur sadipscing elitr, sed diam nonumy eirmod tempor invidunt
ut labore et dolore magna aliquyam erat, sed diam voluptua."
2254,,Stellplatz Hasle-Entlebuch,caravan_site,,https://stellplatz-camping.ch,46.9853299,8.0584912,Beherbergung,"
Lorem ipsum dolor sit amet, consetetur sadipscing elitr, sed diam nonumy eirmod tempor invidunt
ut labore et dolore magna aliquyam erat, sed diam voluptua."
2255,,Holzskulpturen,artwork,,,46.9478639,8.0532183,Aktivität,"
Lorem ipsum dolor sit amet, consetetur sadipscing elitr, sed diam nonumy eirmod tempor invidunt
ut labore et dolore magna aliquyam erat, sed diam voluptua."
2261,board,Drachenmoor 1,information,,,47.0124224,8.2618945,Information,"
Lorem ipsum dolor sit amet, consetetur sadipscing elitr, sed diam nonumy eirmod tempor invidunt
ut labore et dolore magna aliquyam erat, sed diam voluptua."
2262,board,Drachenmoor 2,information,,,47.0110062,8.2615056,Information,"
Lorem ipsum dolor sit amet, consetetur sadipscing elitr, sed diam nonumy eirmod tempor invidunt
ut labore et dolore magna aliquyam erat, sed diam voluptua."
2263,board,Drachenmoor 3,information,,,47.0092120,8.2604327,Information,"
Lorem ipsum dolor sit amet, consetetur sadipscing elitr, sed diam nonumy eirmod tempor invidunt
ut labore et dolore magna aliquyam erat, sed diam voluptua."
2264,board,Drachenmoor 6,information,,,47.0074224,8.2603563,Information,"
Lorem ipsum dolor sit amet, consetetur sadipscing elitr, sed diam nonumy eirmod tempor invidunt
ut labore et dolore magna aliquyam erat, sed diam voluptua."
2265,board,Drachenmoor 4,information,,,47.0085893,8.2605253,Information,"
Lorem ipsum dolor sit amet, consetetur sadipscing elitr, sed diam nonumy eirmod tempor invidunt
ut labore et dolore magna aliquyam erat, sed diam voluptua."
2266,board,Drachenmoor 5,information,,,47.0081311,8.2605414,Information,"
Lorem ipsum dolor sit amet, consetetur sadipscing elitr, sed diam nonumy eirmod tempor invidunt
ut labore et dolore magna aliquyam erat, sed diam voluptua."
2268,board,Drachenmoor 7,information,,,47.0082241,8.2649874,Information,"
Lorem ipsum dolor sit amet, consetetur sadipscing elitr, sed diam nonumy eirmod tempor invidunt
ut labore et dolore magna aliquyam erat, sed diam voluptua."
2269,board,Drachenmoor 8,information,,,47.0090581,8.2662266,Information,"
Lorem ipsum dolor sit amet, consetetur sadipscing elitr, sed diam nonumy eirmod tempor invidunt
ut labore et dolore magna aliquyam erat, sed diam voluptua."
2270,board,Drachenmoor 9,information,,,47.0096720,8.2661263,Information,"
Lorem ipsum dolor sit amet, consetetur sadipscing elitr, sed diam nonumy eirmod tempor invidunt
ut labore et dolore magna aliquyam erat, sed diam voluptua."
2272,board,Drachenmoor 10,information,,,47.0111602,8.2673793,Information,"
Lorem ipsum dolor sit amet, consetetur sadipscing elitr, sed diam nonumy eirmod tempor invidunt
ut labore et dolore magna aliquyam erat, sed diam voluptua."
2274,board,Drachenmoor 11,information,,,47.0121167,8.2667228,Information,"
Lorem ipsum dolor sit amet, consetetur sadipscing elitr, sed diam nonumy eirmod tempor invidunt
ut labore et dolore magna aliquyam erat, sed diam voluptua."
2279,,Stellplatz Käppeli,caravan_site,+41 78 635 35 21,,47.2530946,8.2379269,Beherbergung,"
Lorem ipsum dolor sit amet, consetetur sadipscing elitr, sed diam nonumy eirmod tempor invidunt
ut labore et dolore magna aliquyam erat, sed diam voluptua."
2287,,Grillplatz Bruust,picnic_site,,https://www.schweizerfeuerstellen.ch/bruust-horw-luzern,47.0015233,8.2977368,Aktivität,"
Lorem ipsum dolor sit amet, consetetur sadipscing elitr, sed diam nonumy eirmod tempor invidunt
ut labore et dolore magna aliquyam erat, sed diam voluptua."
2288,,Begegnungsplatz Neuenkircherwald,picnic_site,,,47.0987259,8.1880516,Aktivität,"
Lorem ipsum dolor sit amet, consetetur sadipscing elitr, sed diam nonumy eirmod tempor invidunt
ut labore et dolore magna aliquyam erat, sed diam voluptua."
2289,,Erlebnis Eiszeit Mammut,attraction,,http://www.erlebnis-eiszeit.ch/,47.1428099,8.3222981,Aktivität,"
Lorem ipsum dolor sit amet, consetetur sadipscing elitr, sed diam nonumy eirmod tempor invidunt
ut labore et dolore magna aliquyam erat, sed diam voluptua."
2301,,Wallfahrtskirche Gormund,viewpoint,,,47.1595496,8.2200901,Aktivität,"
Lorem ipsum dolor sit amet, consetetur sadipscing elitr, sed diam nonumy eirmod tempor invidunt
ut labore et dolore magna aliquyam erat, sed diam voluptua."
2304,,Campingplatz Zegro,camp_site,+41 62 927 14 24,,47.1713959,7.8848531,Beherbergung,"
Lorem ipsum dolor sit amet, consetetur sadipscing elitr, sed diam nonumy eirmod tempor invidunt
ut labore et dolore magna aliquyam erat, sed diam voluptua."
2305,,Camping/ Erleb. Bauernhof Gerbe,camp_site,+41 41 790 45 34,,47.1212050,8.4458898,Beherbergung,"
Lorem ipsum dolor sit amet, consetetur sadipscing elitr, sed diam nonumy eirmod tempor invidunt
ut labore et dolore magna aliquyam erat, sed diam voluptua."
2306,,Campingplatz Chnubel,camp_site,+41 41 484 23 50,,46.9372353,8.0008071,Beherbergung,"
Lorem ipsum dolor sit amet, consetetur sadipscing elitr, sed diam nonumy eirmod tempor invidunt
ut labore et dolore magna aliquyam erat, sed diam voluptua."
2307,,Campingplatz Seeland TCS,camp_site,+41 41 460 14 66,,47.1255138,8.1902459,Beherbergung,"
Lorem ipsum dolor sit amet, consetetur sadipscing elitr, sed diam nonumy eirmod tempor invidunt
ut labore et dolore magna aliquyam erat, sed diam voluptua."
2310,,Haus zum Dolder,museum,,,47.2062471,8.1918044,Aktivität,"
Lorem ipsum dolor sit amet, consetetur sadipscing elitr, sed diam nonumy eirmod tempor invidunt
ut labore et dolore magna aliquyam erat, sed diam voluptua."
2357,,The Bed + Breakfast,hotel,,https://www.thebandb.ch/,47.0413824,8.3013483,Beherbergung,"
Lorem ipsum dolor sit amet, consetetur sadipscing elitr, sed diam nonumy eirmod tempor invidunt
ut labore et dolore magna aliquyam erat, sed diam voluptua."
2370,map,Tertianum Residenz Bellerive,information,,,47.0544977,8.3349307,Information,"
Lorem ipsum dolor sit amet, consetetur sadipscing elitr, sed diam nonumy eirmod tempor invidunt
ut labore et dolore magna aliquyam erat, sed diam voluptua."
2371,map,Tertianum Residenz Bellerive,information,,,47.0545863,8.3340034,Information,"
Lorem ipsum dolor sit amet, consetetur sadipscing elitr, sed diam nonumy eirmod tempor invidunt
ut labore et dolore magna aliquyam erat, sed diam voluptua."
2372,,Kurhaus Flühli,hotel,+41414881166,https://www.kurhaus-fluehli.ch,46.8840045,8.0159941,Beherbergung,"
Lorem ipsum dolor sit amet, consetetur sadipscing elitr, sed diam nonumy eirmod tempor invidunt
ut labore et dolore magna aliquyam erat, sed diam voluptua."
2381,,Anstatt,hotel,+41 58 510 95 10,,47.0125332,8.3087288,Beherbergung,"
Lorem ipsum dolor sit amet, consetetur sadipscing elitr, sed diam nonumy eirmod tempor invidunt
ut labore et dolore magna aliquyam erat, sed diam voluptua."
2382,board,Lebensraum für Amphibien,information,,,47.1833425,8.1050527,Information,"
Lorem ipsum dolor sit amet, consetetur sadipscing elitr, sed diam nonumy eirmod tempor invidunt
ut labore et dolore magna aliquyam erat, sed diam voluptua."
2389,,Chessimättli,viewpoint,,,46.8704680,8.0457426,Aktivität,"
Lorem ipsum dolor sit amet, consetetur sadipscing elitr, sed diam nonumy eirmod tempor invidunt
ut labore et dolore magna aliquyam erat, sed diam voluptua."
2400,,Abenzirkel 1852-1952,artwork,,,47.0510318,8.2588466,Aktivität,"
Lorem ipsum dolor sit amet, consetetur sadipscing elitr, sed diam nonumy eirmod tempor invidunt
ut labore et dolore magna aliquyam erat, sed diam voluptua."
2403,,3 Kinder,artwork,,,47.1334957,8.3178451,Aktivität,"
Lorem ipsum dolor sit amet, consetetur sadipscing elitr, sed diam nonumy eirmod tempor invidunt
ut labore et dolore magna aliquyam erat, sed diam voluptua."
2427,,Heart of Hope,artwork,,,47.0511174,8.2953798,Aktivität,"
Lorem ipsum dolor sit amet, consetetur sadipscing elitr, sed diam nonumy eirmod tempor invidunt
ut labore et dolore magna aliquyam erat, sed diam voluptua."
2428,,Angel of Lucerne,artwork,,,47.0510873,8.2954368,Aktivität,"
Lorem ipsum dolor sit amet, consetetur sadipscing elitr, sed diam nonumy eirmod tempor invidunt
ut labore et dolore magna aliquyam erat, sed diam voluptua."
2440,,Kirchfeld,viewpoint,,,47.0222639,8.3144538,Aktivität,"
Lorem ipsum dolor sit amet, consetetur sadipscing elitr, sed diam nonumy eirmod tempor invidunt
ut labore et dolore magna aliquyam erat, sed diam voluptua."
2442,,Young Backpackers Homestay,hostel,,https://www.hostelworld.com/pwa/hosteldetails.php/Young-Backpackers-Homestay/Lucerne/304978,47.0404712,8.2912951,Beherbergung,"
Lorem ipsum dolor sit amet, consetetur sadipscing elitr, sed diam nonumy eirmod tempor invidunt
ut labore et dolore magna aliquyam erat, sed diam voluptua."
2443,,Radioweg Beromünster Pisten 2,information,,,47.2041384,8.1844589,Information,"
Lorem ipsum dolor sit amet, consetetur sadipscing elitr, sed diam nonumy eirmod tempor invidunt
ut labore et dolore magna aliquyam erat, sed diam voluptua."
2444,,Radioweg Beromünster Posten 1,information,,,47.2052736,8.1884748,Information,"
Lorem ipsum dolor sit amet, consetetur sadipscing elitr, sed diam nonumy eirmod tempor invidunt
ut labore et dolore magna aliquyam erat, sed diam voluptua."
2445,,Radioweg Beromünster Posten 5,information,,,47.1922120,8.1826055,Information,"
Lorem ipsum dolor sit amet, consetetur sadipscing elitr, sed diam nonumy eirmod tempor invidunt
ut labore et dolore magna aliquyam erat, sed diam voluptua."
2448,,Bauernhof Familie Elmiger-Rohrer,apartment,,,47.2302703,8.2401190,Beherbergung,"
Lorem ipsum dolor sit amet, consetetur sadipscing elitr, sed diam nonumy eirmod tempor invidunt
ut labore et dolore magna aliquyam erat, sed diam voluptua."
2449,,Niveau Kunst am Bau,artwork,,,47.0551978,8.2919159,Aktivität,"
Lorem ipsum dolor sit amet, consetetur sadipscing elitr, sed diam nonumy eirmod tempor invidunt
ut labore et dolore magna aliquyam erat, sed diam voluptua."
2462,office,Escholzmatt - Marbach,information,,,46.8501969,7.8956434,Information,"
Lorem ipsum dolor sit amet, consetetur sadipscing elitr, sed diam nonumy eirmod tempor invidunt
ut labore et dolore magna aliquyam erat, sed diam voluptua."
2464,board,Rotseefähre,information,,https://rotsee.lu/,47.0714562,8.3147199,Information,"
Lorem ipsum dolor sit amet, consetetur sadipscing elitr, sed diam nonumy eirmod tempor invidunt
ut labore et dolore magna aliquyam erat, sed diam voluptua."
2472,,Baslertor,hotel,,,47.0509107,8.3022003,Beherbergung,"
Lorem ipsum dolor sit amet, consetetur sadipscing elitr, sed diam nonumy eirmod tempor invidunt
ut labore et dolore magna aliquyam erat, sed diam voluptua."
2473,,Naturmuseum,museum,,https://www.naturmuseum.ch,47.0517131,8.3009679,Aktivität,"
Lorem ipsum dolor sit amet, consetetur sadipscing elitr, sed diam nonumy eirmod tempor invidunt
ut labore et dolore magna aliquyam erat, sed diam voluptua."
2478,,Historisches Museum,museum,,https://www.historischesmuseum.lu.ch,47.0513503,8.3017320,Aktivität,"
Lorem ipsum dolor sit amet, consetetur sadipscing elitr, sed diam nonumy eirmod tempor invidunt
ut labore et dolore magna aliquyam erat, sed diam voluptua."
2479,,Maislabyrinth Weiernheim,attraction,,https://www.weiernheim-live.ch/,47.2270459,8.0443801,Aktivität,"
Lorem ipsum dolor sit amet, consetetur sadipscing elitr, sed diam nonumy eirmod tempor invidunt
ut labore et dolore magna aliquyam erat, sed diam voluptua."
2480,,Wasserturm,information,,,47.0510255,8.3080350,Information,"
Lorem ipsum dolor sit amet, consetetur sadipscing elitr, sed diam nonumy eirmod tempor invidunt
ut labore et dolore magna aliquyam erat, sed diam voluptua."
2481,board,Kapellbrücke,information,,,47.0509275,8.3067167,Information,"
Lorem ipsum dolor sit amet, consetetur sadipscing elitr, sed diam nonumy eirmod tempor invidunt
ut labore et dolore magna aliquyam erat, sed diam voluptua."
2482,,Joie de vivre (Bronzeplastik von Franco Annoni),artwork,,,47.0525838,8.3341783,Aktivität,"
Lorem ipsum dolor sit amet, consetetur sadipscing elitr, sed diam nonumy eirmod tempor invidunt
ut labore et dolore magna aliquyam erat, sed diam voluptua."
2487,board,Sändertrail,information,,,47.1762057,8.2295158,Information,"
Lorem ipsum dolor sit amet, consetetur sadipscing elitr, sed diam nonumy eirmod tempor invidunt
ut labore et dolore magna aliquyam erat, sed diam voluptua."
2488,board,Sändertrail,information,,,47.2031266,8.2217091,Information,"
Lorem ipsum dolor sit amet, consetetur sadipscing elitr, sed diam nonumy eirmod tempor invidunt
ut labore et dolore magna aliquyam erat, sed diam voluptua."
2489,board,Sändertrail,information,,,47.1780317,8.2180205,Information,"
Lorem ipsum dolor sit amet, consetetur sadipscing elitr, sed diam nonumy eirmod tempor invidunt
ut labore et dolore magna aliquyam erat, sed diam voluptua."
2490,,Focus Hotel,hotel,+41 41 541 67 67,https://focushotel.ch/,47.1740593,8.0963576,Beherbergung,"
Lorem ipsum dolor sit amet, consetetur sadipscing elitr, sed diam nonumy eirmod tempor invidunt
ut labore et dolore magna aliquyam erat, sed diam voluptua."
2494,board,Waldreservat Höchänzi – Napf – Hängscht,information,,,47.0104296,7.9412591,Information,"
Lorem ipsum dolor sit amet, consetetur sadipscing elitr, sed diam nonumy eirmod tempor invidunt
ut labore et dolore magna aliquyam erat, sed diam voluptua."
